{
"type": "FeatureCollection",
"name": "ANM_Lanyuak",
"crs": { "type": "name", "properties": { "name": "urn:ogc:def:crs:OGC:1.3:CRS84" } },
"features": [
{ "type": "Feature", "properties": { "Sample Type": "Soil Analysis", "Analysis Name": "Soil Bulk Density,Soil Organic Carbon (Dry Combustion),Soil Texture Analysis", "Sample_Code": "CR442SA0103", "Client Name": "Regenerative carbon Alliance", "Farm Name": "Regenerative carbon Alliance", "field_6": null, "Field Name": "ANn04", "Cooperative": "Eor Emayian", "y": -0.86953, "x": 35.88717, "Crop": "Corn", "Depth": "Top Soil", "Condition": "Moist", "Comments": null, "C (%)": 3.86, "%Sand (%)": 21.6, "%Silt (%)": 37.6, "BD (g/cm3)": 1.01, "%Clay (%)": 40.8, "FAO Soil Type": "ANm" }, "geometry": { "type": "Point", "coordinates": [ 35.88717, -0.86953 ] } },
{ "type": "Feature", "properties": { "Sample Type": "Soil Analysis", "Analysis Name": "Soil Bulk Density,Soil Organic Carbon (Dry Combustion),Soil Texture Analysis", "Sample_Code": "CR442SA0105", "Client Name": "Regenerative carbon Alliance", "Farm Name": "Regenerative carbon Alliance", "field_6": null, "Field Name": "ANn06", "Cooperative": "Eor Emayian", "y": -0.86893, "x": 35.88903, "Crop": "No crop", "Depth": "Top Soil", "Condition": "Moist", "Comments": null, "C (%)": 4.79, "%Sand (%)": 23.6, "%Silt (%)": 35.6, "BD (g/cm3)": 1.06, "%Clay (%)": 40.8, "FAO Soil Type": "ANm" }, "geometry": { "type": "Point", "coordinates": [ 35.88903, -0.86893 ] } },
{ "type": "Feature", "properties": { "Sample Type": "Soil Analysis", "Analysis Name": "Soil Bulk Density,Soil Organic Carbon (Dry Combustion),Soil Texture Analysis", "Sample_Code": "CR442SA0111", "Client Name": "Regenerative carbon Alliance", "Farm Name": "Regenerative carbon Alliance", "field_6": null, "Field Name": "EE50", "Cooperative": "Eor Emayian", "y": -0.85136, "x": 35.89619, "Crop": "Potato", "Depth": "Top Soil", "Condition": "Moist", "Comments": null, "C (%)": 6.21, "%Sand (%)": 25.6, "%Silt (%)": 33.6, "BD (g/cm3)": 0.93, "%Clay (%)": 40.8, "FAO Soil Type": "ANm" }, "geometry": { "type": "Point", "coordinates": [ 35.89619, -0.85136 ] } },
{ "type": "Feature", "properties": { "Sample Type": "Soil Analysis", "Analysis Name": "Soil Bulk Density,Soil Organic Carbon (Dry Combustion),Soil Texture Analysis", "Sample_Code": "CR442SA0112", "Client Name": "Regenerative carbon Alliance", "Farm Name": "Regenerative carbon Alliance", "field_6": null, "Field Name": "EE51", "Cooperative": "Eor Emayian", "y": -0.83719, "x": 35.88608, "Crop": "Cabbage", "Depth": "Top Soil", "Condition": "Moist", "Comments": null, "C (%)": 5.41, "%Sand (%)": 27.6, "%Silt (%)": 35.6, "BD (g/cm3)": 0.87, "%Clay (%)": 36.8, "FAO Soil Type": "ANm" }, "geometry": null },
{ "type": "Feature", "properties": { "Sample Type": "Soil Analysis", "Analysis Name": "Soil Bulk Density,Soil Organic Carbon (Dry Combustion),Soil Texture Analysis", "Sample_Code": "CR442SA0113", "Client Name": "Regenerative carbon Alliance", "Farm Name": "Regenerative carbon Alliance", "field_6": null, "Field Name": "EE52", "Cooperative": "Eor Emayian", "y": -0.84026, "x": 35.89593, "Crop": "Peas", "Depth": "Top Soil", "Condition": "Moist", "Comments": null, "C (%)": 3.0, "%Sand (%)": 23.6, "%Silt (%)": 29.6, "BD (g/cm3)": 1.05, "%Clay (%)": 46.8, "FAO Soil Type": "ANm" }, "geometry": { "type": "Point", "coordinates": [ 35.89593, -0.84026 ] } },
{ "type": "Feature", "properties": { "Sample Type": "Soil Analysis", "Analysis Name": "Soil Bulk Density,Soil Organic Carbon (Dry Combustion),Soil Texture Analysis", "Sample_Code": "CR442SA0114", "Client Name": "Regenerative carbon Alliance", "Farm Name": "Regenerative carbon Alliance", "field_6": null, "Field Name": "EE53", "Cooperative": "Eor Emayian", "y": -0.84635, "x": 35.89275, "Crop": "Potato", "Depth": "Top Soil", "Condition": "Moist", "Comments": null, "C (%)": 4.5, "%Sand (%)": 27.6, "%Silt (%)": 29.6, "BD (g/cm3)": 0.9, "%Clay (%)": 42.8, "FAO Soil Type": "ANm" }, "geometry": null },
{ "type": "Feature", "properties": { "Sample Type": "Soil Analysis", "Analysis Name": "Soil Bulk Density,Soil Organic Carbon (Dry Combustion),Soil Texture Analysis", "Sample_Code": "CR442SA0115", "Client Name": "Regenerative carbon Alliance", "Farm Name": "Regenerative carbon Alliance", "field_6": null, "Field Name": "EE54", "Cooperative": "Eor Emayian", "y": -0.84242, "x": 35.89262, "Crop": "Potato", "Depth": "Top Soil", "Condition": "Moist", "Comments": null, "C (%)": 3.46, "%Sand (%)": 23.6, "%Silt (%)": 31.6, "BD (g/cm3)": 0.96, "%Clay (%)": 44.8, "FAO Soil Type": "ANm" }, "geometry": { "type": "Point", "coordinates": [ 35.89262, -0.84242 ] } },
{ "type": "Feature", "properties": { "Sample Type": "Soil Analysis", "Analysis Name": "Soil Bulk Density,Soil Organic Carbon (Dry Combustion),Soil Texture Analysis", "Sample_Code": "CR442SA0116", "Client Name": "Regenerative carbon Alliance", "Farm Name": "Regenerative carbon Alliance", "field_6": null, "Field Name": "EE55", "Cooperative": "Eor Emayian", "y": -0.84147, "x": 35.89258, "Crop": "Potato", "Depth": "Top Soil", "Condition": "Moist", "Comments": null, "C (%)": 4.2, "%Sand (%)": 21.6, "%Silt (%)": 35.6, "BD (g/cm3)": 0.95, "%Clay (%)": 42.8, "FAO Soil Type": "ANm" }, "geometry": { "type": "Point", "coordinates": [ 35.89258, -0.84147 ] } },
{ "type": "Feature", "properties": { "Sample Type": "Soil Analysis", "Analysis Name": "Soil Bulk Density,Soil Organic Carbon (Dry Combustion),Soil Texture Analysis", "Sample_Code": "CR442SA0171", "Client Name": "Regenerative carbon Alliance", "Farm Name": "Regenerative carbon Alliance", "field_6": null, "Field Name": "L57", "Cooperative": "Lanyuak", "y": -0.79433, "x": 35.8938, "Crop": "Potato", "Depth": "Top Soil", "Condition": "Moist", "Comments": null, "C (%)": 4.62, "%Sand (%)": 29.3, "%Silt (%)": 34.0, "BD (g/cm3)": 0.93, "%Clay (%)": 36.7, "FAO Soil Type": "ANm" }, "geometry": null },
{ "type": "Feature", "properties": { "Sample Type": "Soil Analysis", "Analysis Name": "Soil Bulk Density,Soil Organic Carbon (Dry Combustion),Soil Texture Analysis", "Sample_Code": "CR442SA0172", "Client Name": "Regenerative carbon Alliance", "Farm Name": "Regenerative carbon Alliance", "field_6": null, "Field Name": "L58", "Cooperative": "Lanyuak", "y": -0.78786, "x": 35.89042, "Crop": "Corn", "Depth": "Top Soil", "Condition": "Moist", "Comments": null, "C (%)": 4.89, "%Sand (%)": 29.3, "%Silt (%)": 30.0, "BD (g/cm3)": 0.9, "%Clay (%)": 40.7, "FAO Soil Type": "ANm" }, "geometry": null },
{ "type": "Feature", "properties": { "Sample Type": "Soil Analysis", "Analysis Name": "Soil Bulk Density,Soil Organic Carbon (Dry Combustion),Soil Texture Analysis", "Sample_Code": "CR442SA0173", "Client Name": "Regenerative carbon Alliance", "Farm Name": "Regenerative carbon Alliance", "field_6": null, "Field Name": "L59", "Cooperative": "Lanyuak", "y": -0.78242, "x": 35.89213, "Crop": "Potato", "Depth": "Top Soil", "Condition": "Moist", "Comments": null, "C (%)": 4.19, "%Sand (%)": 25.3, "%Silt (%)": 34.0, "BD (g/cm3)": 0.96, "%Clay (%)": 40.7, "FAO Soil Type": "ANm" }, "geometry": null },
{ "type": "Feature", "properties": { "Sample Type": "Soil Analysis", "Analysis Name": "Soil Bulk Density,Soil Organic Carbon (Dry Combustion),Soil Texture Analysis", "Sample_Code": "CR442SA0174", "Client Name": "Regenerative carbon Alliance", "Farm Name": "Regenerative carbon Alliance", "field_6": null, "Field Name": "L60", "Cooperative": "Lanyuak", "y": -0.78267, "x": 35.893, "Crop": "Corn", "Depth": "Top Soil", "Condition": "Moist", "Comments": null, "C (%)": 4.24, "%Sand (%)": 31.3, "%Silt (%)": 26.0, "BD (g/cm3)": 1.05, "%Clay (%)": 42.7, "FAO Soil Type": "ANm" }, "geometry": null },
{ "type": "Feature", "properties": { "Sample Type": "Soil Analysis", "Analysis Name": "Soil Bulk Density,Soil Organic Carbon (Dry Combustion),Soil Texture Analysis", "Sample_Code": "CR442SA0175", "Client Name": "Regenerative carbon Alliance", "Farm Name": "Regenerative carbon Alliance", "field_6": null, "Field Name": "L61", "Cooperative": "Lanyuak", "y": -0.77419, "x": 35.89103, "Crop": "Potato", "Depth": "Top Soil", "Condition": "Moist", "Comments": null, "C (%)": 5.54, "%Sand (%)": 27.3, "%Silt (%)": 32.0, "BD (g/cm3)": 0.95, "%Clay (%)": 40.7, "FAO Soil Type": "ANm" }, "geometry": null },
{ "type": "Feature", "properties": { "Sample Type": "Soil Analysis", "Analysis Name": "Soil Bulk Density,Soil Organic Carbon (Dry Combustion),Soil Texture Analysis", "Sample_Code": "CR442SA0176", "Client Name": "Regenerative carbon Alliance", "Farm Name": "Regenerative carbon Alliance", "field_6": null, "Field Name": "L62", "Cooperative": "Lanyuak", "y": -0.76992, "x": 35.88869, "Crop": "Onion, Arrowroots", "Depth": "Top Soil", "Condition": "Moist", "Comments": null, "C (%)": 4.32, "%Sand (%)": 27.3, "%Silt (%)": 32.0, "BD (g/cm3)": 1.07, "%Clay (%)": 40.7, "FAO Soil Type": "ANm" }, "geometry": null }
]
}
