<?xml version="1.0" encoding="utf-8" ?>
<kml xmlns="http://www.opengis.net/kml/2.2">
<Document id="root_doc">
<Schema name="kenya_soc_nth" id="kenya_soc_nth">
	<SimpleField name="Name" type="string"></SimpleField>
	<SimpleField name="Sample Type" type="string"></SimpleField>
	<SimpleField name="Analysis Name" type="string"></SimpleField>
	<SimpleField name="Sample_Code" type="string"></SimpleField>
	<SimpleField name="Client Name" type="string"></SimpleField>
	<SimpleField name="Farm Name" type="string"></SimpleField>
	<SimpleField name="field_6" type="string"></SimpleField>
	<SimpleField name="Cooperative" type="string"></SimpleField>
	<SimpleField name="y" type="float"></SimpleField>
	<SimpleField name="x" type="float"></SimpleField>
	<SimpleField name="Crop" type="string"></SimpleField>
	<SimpleField name="Depth" type="string"></SimpleField>
	<SimpleField name="Condition" type="string"></SimpleField>
	<SimpleField name="Comments" type="string"></SimpleField>
	<SimpleField name="C (%)" type="float"></SimpleField>
	<SimpleField name="%Sand (%)" type="float"></SimpleField>
	<SimpleField name="%Silt (%)" type="float"></SimpleField>
	<SimpleField name="BD (g/cm3)" type="float"></SimpleField>
	<SimpleField name="%Clay (%)" type="float"></SimpleField>
	<SimpleField name="FAO Soil Type" type="string"></SimpleField>
</Schema>
<Folder><name>kenya_soc_nth</name>
  <Placemark>
	<name>M53</name>
	<ExtendedData><SchemaData schemaUrl="#kenya_soc_nth">
		<SimpleData name="Sample Type">Soil Analysis</SimpleData>
		<SimpleData name="Analysis Name">Soil Organic Carbon (Dry Combustion) ,Soil Texture Analysis</SimpleData>
		<SimpleData name="Sample_Code">CR442SA0196</SimpleData>
		<SimpleData name="Client Name">Regenerative carbon Alliance</SimpleData>
		<SimpleData name="Farm Name">Regenerative carbon Alliance</SimpleData>
		<SimpleData name="Cooperative">Mumberes</SimpleData>
		<SimpleData name="y">0.0300843</SimpleData>
		<SimpleData name="x">35.5233864</SimpleData>
		<SimpleData name="Crop">No crop</SimpleData>
		<SimpleData name="Depth">Top Soil</SimpleData>
		<SimpleData name="Condition">Moist</SimpleData>
		<SimpleData name="C (%)">2.85</SimpleData>
		<SimpleData name="%Sand (%)">13.3</SimpleData>
		<SimpleData name="%Silt (%)">20</SimpleData>
		<SimpleData name="%Clay (%)">66.7</SimpleData>
		<SimpleData name="FAO Soil Type">NTh</SimpleData>
	</SchemaData></ExtendedData>
      <Point><coordinates>35.5233864,0.0300843</coordinates></Point>
  </Placemark>
  <Placemark>
	<name>M54</name>
	<ExtendedData><SchemaData schemaUrl="#kenya_soc_nth">
		<SimpleData name="Sample Type">Soil Analysis</SimpleData>
		<SimpleData name="Analysis Name">Soil Bulk Density,Soil Organic Carbon (Dry Combustion),Soil Texture Analysis</SimpleData>
		<SimpleData name="Sample_Code">CR442SA0197</SimpleData>
		<SimpleData name="Client Name">Regenerative carbon Alliance</SimpleData>
		<SimpleData name="Farm Name">Regenerative carbon Alliance</SimpleData>
		<SimpleData name="Cooperative">Mumberes</SimpleData>
		<SimpleData name="y">0.0270853</SimpleData>
		<SimpleData name="x">35.4774931</SimpleData>
		<SimpleData name="Crop">No crop</SimpleData>
		<SimpleData name="Depth">Top Soil</SimpleData>
		<SimpleData name="Condition">Moist</SimpleData>
		<SimpleData name="C (%)">2.07</SimpleData>
		<SimpleData name="%Sand (%)">17.3</SimpleData>
		<SimpleData name="%Silt (%)">16</SimpleData>
		<SimpleData name="BD (g/cm3)">1.04</SimpleData>
		<SimpleData name="%Clay (%)">66.7</SimpleData>
		<SimpleData name="FAO Soil Type">NTh</SimpleData>
	</SchemaData></ExtendedData>
      <Point><coordinates>35.4774931,0.0270853</coordinates></Point>
  </Placemark>
  <Placemark>
	<name>M56</name>
	<ExtendedData><SchemaData schemaUrl="#kenya_soc_nth">
		<SimpleData name="Sample Type">Soil Analysis</SimpleData>
		<SimpleData name="Analysis Name">Soil Organic Carbon (Dry Combustion) ,Soil Texture Analysis</SimpleData>
		<SimpleData name="Sample_Code">CR442SA0199</SimpleData>
		<SimpleData name="Client Name">Regenerative carbon Alliance</SimpleData>
		<SimpleData name="Farm Name">Regenerative carbon Alliance</SimpleData>
		<SimpleData name="Cooperative">Mumberes</SimpleData>
		<SimpleData name="y">-0.03606</SimpleData>
		<SimpleData name="x">35.537595</SimpleData>
		<SimpleData name="Crop">No crop</SimpleData>
		<SimpleData name="Depth">Top Soil</SimpleData>
		<SimpleData name="Condition">Moist</SimpleData>
		<SimpleData name="C (%)">4.42</SimpleData>
		<SimpleData name="%Sand (%)">13.3</SimpleData>
		<SimpleData name="%Silt (%)">24</SimpleData>
		<SimpleData name="%Clay (%)">62.7</SimpleData>
		<SimpleData name="FAO Soil Type">NTh</SimpleData>
	</SchemaData></ExtendedData>
      <Point><coordinates>35.537595,-0.03606</coordinates></Point>
  </Placemark>
  <Placemark>
	<name>M57</name>
	<ExtendedData><SchemaData schemaUrl="#kenya_soc_nth">
		<SimpleData name="Sample Type">Soil Analysis</SimpleData>
		<SimpleData name="Analysis Name">Soil Organic Carbon (Dry Combustion) ,Soil Texture Analysis</SimpleData>
		<SimpleData name="Sample_Code">CR442SA0200</SimpleData>
		<SimpleData name="Client Name">Regenerative carbon Alliance</SimpleData>
		<SimpleData name="Farm Name">Regenerative carbon Alliance</SimpleData>
		<SimpleData name="Cooperative">Mumberes</SimpleData>
		<SimpleData name="y">0.0412805</SimpleData>
		<SimpleData name="x">35.5270419</SimpleData>
		<SimpleData name="Crop">No crop</SimpleData>
		<SimpleData name="Depth">Top Soil</SimpleData>
		<SimpleData name="Condition">Moist</SimpleData>
		<SimpleData name="C (%)">4.37</SimpleData>
		<SimpleData name="%Sand (%)">19.3</SimpleData>
		<SimpleData name="%Silt (%)">28</SimpleData>
		<SimpleData name="%Clay (%)">52.7</SimpleData>
		<SimpleData name="FAO Soil Type">NTh</SimpleData>
	</SchemaData></ExtendedData>
      <Point><coordinates>35.5270419,0.0412805</coordinates></Point>
  </Placemark>
  <Placemark>
	<name>M58</name>
	<ExtendedData><SchemaData schemaUrl="#kenya_soc_nth">
		<SimpleData name="Sample Type">Soil Analysis</SimpleData>
		<SimpleData name="Analysis Name">Soil Organic Carbon (Dry Combustion) ,Soil Texture Analysis</SimpleData>
		<SimpleData name="Sample_Code">CR442SA0201</SimpleData>
		<SimpleData name="Client Name">Regenerative carbon Alliance</SimpleData>
		<SimpleData name="Farm Name">Regenerative carbon Alliance</SimpleData>
		<SimpleData name="Cooperative">Mumberes</SimpleData>
		<SimpleData name="y">0.0311934</SimpleData>
		<SimpleData name="x">35.5112511</SimpleData>
		<SimpleData name="Crop">No crop</SimpleData>
		<SimpleData name="Depth">Top Soil</SimpleData>
		<SimpleData name="Condition">Moist</SimpleData>
		<SimpleData name="C (%)">3.81</SimpleData>
		<SimpleData name="%Sand (%)">17.3</SimpleData>
		<SimpleData name="%Silt (%)">24</SimpleData>
		<SimpleData name="%Clay (%)">58.7</SimpleData>
		<SimpleData name="FAO Soil Type">NTh</SimpleData>
	</SchemaData></ExtendedData>
      <Point><coordinates>35.5112511,0.0311934</coordinates></Point>
  </Placemark>
  <Placemark>
	<name>M59</name>
	<ExtendedData><SchemaData schemaUrl="#kenya_soc_nth">
		<SimpleData name="Sample Type">Soil Analysis</SimpleData>
		<SimpleData name="Analysis Name">Soil Organic Carbon (Dry Combustion) ,Soil Texture Analysis</SimpleData>
		<SimpleData name="Sample_Code">CR442SA0202</SimpleData>
		<SimpleData name="Client Name">Regenerative carbon Alliance</SimpleData>
		<SimpleData name="Farm Name">Regenerative carbon Alliance</SimpleData>
		<SimpleData name="Cooperative">Mumberes</SimpleData>
		<SimpleData name="y">0.011879</SimpleData>
		<SimpleData name="x">35.526609</SimpleData>
		<SimpleData name="Crop">No crop</SimpleData>
		<SimpleData name="Depth">Top Soil</SimpleData>
		<SimpleData name="Condition">Moist</SimpleData>
		<SimpleData name="C (%)">3.91</SimpleData>
		<SimpleData name="%Sand (%)">19.3</SimpleData>
		<SimpleData name="%Silt (%)">30</SimpleData>
		<SimpleData name="%Clay (%)">50.7</SimpleData>
		<SimpleData name="FAO Soil Type">NTh</SimpleData>
	</SchemaData></ExtendedData>
      <Point><coordinates>35.526609,0.011879</coordinates></Point>
  </Placemark>
  <Placemark>
	<name>M60</name>
	<ExtendedData><SchemaData schemaUrl="#kenya_soc_nth">
		<SimpleData name="Sample Type">Soil Analysis</SimpleData>
		<SimpleData name="Analysis Name">Soil Bulk Density,Soil Organic Carbon (Dry Combustion),Soil Texture Analysis</SimpleData>
		<SimpleData name="Sample_Code">CR442SA0203</SimpleData>
		<SimpleData name="Client Name">Regenerative carbon Alliance</SimpleData>
		<SimpleData name="Farm Name">Regenerative carbon Alliance</SimpleData>
		<SimpleData name="Cooperative">Mumberes</SimpleData>
		<SimpleData name="y">0.0098373</SimpleData>
		<SimpleData name="x">35.5034244</SimpleData>
		<SimpleData name="Crop">No crop</SimpleData>
		<SimpleData name="Depth">Top Soil</SimpleData>
		<SimpleData name="Condition">Moist</SimpleData>
		<SimpleData name="C (%)">4.6</SimpleData>
		<SimpleData name="%Sand (%)">19.3</SimpleData>
		<SimpleData name="%Silt (%)">16</SimpleData>
		<SimpleData name="BD (g/cm3)">0.94</SimpleData>
		<SimpleData name="%Clay (%)">64.7</SimpleData>
		<SimpleData name="FAO Soil Type">NTh</SimpleData>
	</SchemaData></ExtendedData>
      <Point><coordinates>35.5034244,0.0098373</coordinates></Point>
  </Placemark>
  <Placemark>
	<name>M64</name>
	<ExtendedData><SchemaData schemaUrl="#kenya_soc_nth">
		<SimpleData name="Sample Type">Soil Analysis</SimpleData>
		<SimpleData name="Analysis Name">Soil Bulk Density,Soil Organic Carbon (Dry Combustion),Soil Texture Analysis</SimpleData>
		<SimpleData name="Sample_Code">CR442SA0207</SimpleData>
		<SimpleData name="Client Name">Regenerative carbon Alliance</SimpleData>
		<SimpleData name="Farm Name">Regenerative carbon Alliance</SimpleData>
		<SimpleData name="Cooperative">Mumberes</SimpleData>
		<SimpleData name="y">0.0010813</SimpleData>
		<SimpleData name="x">35.515889</SimpleData>
		<SimpleData name="Crop">No crop</SimpleData>
		<SimpleData name="Depth">Top Soil</SimpleData>
		<SimpleData name="Condition">Moist</SimpleData>
		<SimpleData name="C (%)">6.06</SimpleData>
		<SimpleData name="%Sand (%)">25.3</SimpleData>
		<SimpleData name="%Silt (%)">32</SimpleData>
		<SimpleData name="BD (g/cm3)">0.98</SimpleData>
		<SimpleData name="%Clay (%)">42.7</SimpleData>
		<SimpleData name="FAO Soil Type">NTh</SimpleData>
	</SchemaData></ExtendedData>
      <Point><coordinates>35.515889,0.0010813</coordinates></Point>
  </Placemark>
  <Placemark>
	<name>M65</name>
	<ExtendedData><SchemaData schemaUrl="#kenya_soc_nth">
		<SimpleData name="Sample Type">Soil Analysis</SimpleData>
		<SimpleData name="Analysis Name">Soil Organic Carbon (Dry Combustion) ,Soil Texture Analysis</SimpleData>
		<SimpleData name="Sample_Code">CR442SA0208</SimpleData>
		<SimpleData name="Client Name">Regenerative carbon Alliance</SimpleData>
		<SimpleData name="Farm Name">Regenerative carbon Alliance</SimpleData>
		<SimpleData name="Cooperative">Mumberes</SimpleData>
		<SimpleData name="y">-0.0010092</SimpleData>
		<SimpleData name="x">35.5049228</SimpleData>
		<SimpleData name="Crop">No crop</SimpleData>
		<SimpleData name="Depth">Top Soil</SimpleData>
		<SimpleData name="Condition">Moist</SimpleData>
		<SimpleData name="C (%)">3.57</SimpleData>
		<SimpleData name="%Sand (%)">13.3</SimpleData>
		<SimpleData name="%Silt (%)">18</SimpleData>
		<SimpleData name="%Clay (%)">68.7</SimpleData>
		<SimpleData name="FAO Soil Type">NTh</SimpleData>
	</SchemaData></ExtendedData>
      <Point><coordinates>35.5049228,-0.0010092</coordinates></Point>
  </Placemark>
  <Placemark>
	<name>M70</name>
	<ExtendedData><SchemaData schemaUrl="#kenya_soc_nth">
		<SimpleData name="Sample Type">Soil Analysis</SimpleData>
		<SimpleData name="Analysis Name">Soil Bulk Density,Soil Organic Carbon (Dry Combustion),Soil Texture Analysis</SimpleData>
		<SimpleData name="Sample_Code">CR442SA0213</SimpleData>
		<SimpleData name="Client Name">Regenerative carbon Alliance</SimpleData>
		<SimpleData name="Farm Name">Regenerative carbon Alliance</SimpleData>
		<SimpleData name="Cooperative">Mumberes</SimpleData>
		<SimpleData name="y">-0.0037175</SimpleData>
		<SimpleData name="x">35.4881073</SimpleData>
		<SimpleData name="Crop">No crop</SimpleData>
		<SimpleData name="Depth">Top Soil</SimpleData>
		<SimpleData name="Condition">Moist</SimpleData>
		<SimpleData name="C (%)">3.21</SimpleData>
		<SimpleData name="%Sand (%)">17.3</SimpleData>
		<SimpleData name="%Silt (%)">14</SimpleData>
		<SimpleData name="BD (g/cm3)">1.11</SimpleData>
		<SimpleData name="%Clay (%)">68.7</SimpleData>
		<SimpleData name="FAO Soil Type">NTh</SimpleData>
	</SchemaData></ExtendedData>
      <Point><coordinates>35.4881073,-0.0037175</coordinates></Point>
  </Placemark>
  <Placemark>
	<name>M71</name>
	<ExtendedData><SchemaData schemaUrl="#kenya_soc_nth">
		<SimpleData name="Sample Type">Soil Analysis</SimpleData>
		<SimpleData name="Analysis Name">Soil Bulk Density,Soil Organic Carbon (Dry Combustion),Soil Texture Analysis</SimpleData>
		<SimpleData name="Sample_Code">CR442SA0214</SimpleData>
		<SimpleData name="Client Name">Regenerative carbon Alliance</SimpleData>
		<SimpleData name="Farm Name">Regenerative carbon Alliance</SimpleData>
		<SimpleData name="Cooperative">Mumberes</SimpleData>
		<SimpleData name="y">0.032548</SimpleData>
		<SimpleData name="x">35.5050706</SimpleData>
		<SimpleData name="Crop">No crop</SimpleData>
		<SimpleData name="Depth">Top Soil</SimpleData>
		<SimpleData name="Condition">Moist</SimpleData>
		<SimpleData name="C (%)">2.65</SimpleData>
		<SimpleData name="%Sand (%)">13.3</SimpleData>
		<SimpleData name="%Silt (%)">26</SimpleData>
		<SimpleData name="BD (g/cm3)">1</SimpleData>
		<SimpleData name="%Clay (%)">60.7</SimpleData>
		<SimpleData name="FAO Soil Type">NTh</SimpleData>
	</SchemaData></ExtendedData>
      <Point><coordinates>35.5050706,0.032548</coordinates></Point>
  </Placemark>
  <Placemark>
	<name>M76</name>
	<ExtendedData><SchemaData schemaUrl="#kenya_soc_nth">
		<SimpleData name="Sample Type">Soil Analysis</SimpleData>
		<SimpleData name="Analysis Name">Soil Organic Carbon (Dry Combustion) ,Soil Texture Analysis</SimpleData>
		<SimpleData name="Sample_Code">CR442SA0219</SimpleData>
		<SimpleData name="Client Name">Regenerative carbon Alliance</SimpleData>
		<SimpleData name="Farm Name">Regenerative carbon Alliance</SimpleData>
		<SimpleData name="Cooperative">Mumberes</SimpleData>
		<SimpleData name="y">0.0325315</SimpleData>
		<SimpleData name="x">35.4974575</SimpleData>
		<SimpleData name="Crop">No crop</SimpleData>
		<SimpleData name="Depth">Top Soil</SimpleData>
		<SimpleData name="Condition">Moist</SimpleData>
		<SimpleData name="C (%)">2.08</SimpleData>
		<SimpleData name="%Sand (%)">15.3</SimpleData>
		<SimpleData name="%Silt (%)">22</SimpleData>
		<SimpleData name="%Clay (%)">62.7</SimpleData>
		<SimpleData name="FAO Soil Type">NTh</SimpleData>
	</SchemaData></ExtendedData>
      <Point><coordinates>35.4974575,0.0325315</coordinates></Point>
  </Placemark>
  <Placemark>
	<name>M77</name>
	<ExtendedData><SchemaData schemaUrl="#kenya_soc_nth">
		<SimpleData name="Sample Type">Soil Analysis</SimpleData>
		<SimpleData name="Analysis Name">Soil Bulk Density,Soil Organic Carbon (Dry Combustion),Soil Texture Analysis</SimpleData>
		<SimpleData name="Sample_Code">CR442SA0220</SimpleData>
		<SimpleData name="Client Name">Regenerative carbon Alliance</SimpleData>
		<SimpleData name="Farm Name">Regenerative carbon Alliance</SimpleData>
		<SimpleData name="Cooperative">Mumberes</SimpleData>
		<SimpleData name="y">0.0080513</SimpleData>
		<SimpleData name="x">35.513484</SimpleData>
		<SimpleData name="Crop">No crop</SimpleData>
		<SimpleData name="Depth">Top Soil</SimpleData>
		<SimpleData name="Condition">Moist</SimpleData>
		<SimpleData name="C (%)">7.24</SimpleData>
		<SimpleData name="%Sand (%)">25.3</SimpleData>
		<SimpleData name="%Silt (%)">26</SimpleData>
		<SimpleData name="BD (g/cm3)">1.02</SimpleData>
		<SimpleData name="%Clay (%)">48.7</SimpleData>
		<SimpleData name="FAO Soil Type">NTh</SimpleData>
	</SchemaData></ExtendedData>
      <Point><coordinates>35.513484,0.0080513</coordinates></Point>
  </Placemark>
</Folder>
</Document></kml>
