<?xml version="1.0" encoding="utf-8" ?>
<kml xmlns="http://www.opengis.net/kml/2.2">
<Document id="root_doc">
<Schema name="kenya_soc_anm" id="kenya_soc_anm">
	<SimpleField name="Name" type="string"></SimpleField>
	<SimpleField name="Sample Type" type="string"></SimpleField>
	<SimpleField name="Analysis Name" type="string"></SimpleField>
	<SimpleField name="Sample_Code" type="string"></SimpleField>
	<SimpleField name="Client Name" type="string"></SimpleField>
	<SimpleField name="Farm Name" type="string"></SimpleField>
	<SimpleField name="field_6" type="string"></SimpleField>
	<SimpleField name="Cooperative" type="string"></SimpleField>
	<SimpleField name="y" type="float"></SimpleField>
	<SimpleField name="x" type="float"></SimpleField>
	<SimpleField name="Crop" type="string"></SimpleField>
	<SimpleField name="Depth" type="string"></SimpleField>
	<SimpleField name="Condition" type="string"></SimpleField>
	<SimpleField name="Comments" type="string"></SimpleField>
	<SimpleField name="C (%)" type="float"></SimpleField>
	<SimpleField name="%Sand (%)" type="float"></SimpleField>
	<SimpleField name="%Silt (%)" type="float"></SimpleField>
	<SimpleField name="BD (g/cm3)" type="float"></SimpleField>
	<SimpleField name="%Clay (%)" type="float"></SimpleField>
	<SimpleField name="FAO Soil Type" type="string"></SimpleField>
</Schema>
<Folder><name>kenya_soc_anm</name>
  <Placemark>
	<name>L32</name>
	<ExtendedData><SchemaData schemaUrl="#kenya_soc_anm">
		<SimpleData name="Sample Type">Soil Analysis</SimpleData>
		<SimpleData name="Analysis Name">Soil Organic Carbon (Dry Combustion) ,Soil Texture Analysis</SimpleData>
		<SimpleData name="Sample_Code">CR442SA0237</SimpleData>
		<SimpleData name="Client Name">Regenerative carbon Alliance</SimpleData>
		<SimpleData name="Farm Name">Regenerative carbon Alliance</SimpleData>
		<SimpleData name="Cooperative">Lanyuak</SimpleData>
		<SimpleData name="y">-0.75</SimpleData>
		<SimpleData name="x">35.89</SimpleData>
		<SimpleData name="Crop">No crop</SimpleData>
		<SimpleData name="Depth">Top Soil</SimpleData>
		<SimpleData name="Condition">Moist</SimpleData>
		<SimpleData name="C (%)">2.98</SimpleData>
		<SimpleData name="%Sand (%)">25.3</SimpleData>
		<SimpleData name="%Silt (%)">32</SimpleData>
		<SimpleData name="%Clay (%)">42.7</SimpleData>
		<SimpleData name="FAO Soil Type">ANm</SimpleData>
	</SchemaData></ExtendedData>
      <Point><coordinates>35.89,-0.75</coordinates></Point>
  </Placemark>
  <Placemark>
	<name>L51</name>
	<ExtendedData><SchemaData schemaUrl="#kenya_soc_anm">
		<SimpleData name="Sample Type">Soil Analysis</SimpleData>
		<SimpleData name="Analysis Name">Soil Organic Carbon (Dry Combustion) ,Soil Texture Analysis</SimpleData>
		<SimpleData name="Sample_Code">CR442SA0238</SimpleData>
		<SimpleData name="Client Name">Regenerative carbon Alliance</SimpleData>
		<SimpleData name="Farm Name">Regenerative carbon Alliance</SimpleData>
		<SimpleData name="Cooperative">Eor Emayian</SimpleData>
		<SimpleData name="y">-0.83718</SimpleData>
		<SimpleData name="x">35.88608</SimpleData>
		<SimpleData name="Crop">No crop</SimpleData>
		<SimpleData name="Depth">Top Soil</SimpleData>
		<SimpleData name="Condition">Moist</SimpleData>
		<SimpleData name="C (%)">2.74</SimpleData>
		<SimpleData name="%Sand (%)">23.3</SimpleData>
		<SimpleData name="%Silt (%)">32</SimpleData>
		<SimpleData name="%Clay (%)">44.7</SimpleData>
		<SimpleData name="FAO Soil Type">ANm</SimpleData>
	</SchemaData></ExtendedData>
      <Point><coordinates>35.88608,-0.83718</coordinates></Point>
  </Placemark>
  <Placemark>
	<name>ADU05</name>
	<ExtendedData><SchemaData schemaUrl="#kenya_soc_anm">
		<SimpleData name="Sample Type">Soil Analysis</SimpleData>
		<SimpleData name="Analysis Name">Soil Organic Carbon (Dry Combustion) ,Soil Texture Analysis</SimpleData>
		<SimpleData name="Sample_Code">CR442SA0269</SimpleData>
		<SimpleData name="Client Name">Regenerative carbon Alliance</SimpleData>
		<SimpleData name="Farm Name">Regenerative carbon Alliance</SimpleData>
		<SimpleData name="Cooperative">Eor Emayian</SimpleData>
		<SimpleData name="y">-0.87</SimpleData>
		<SimpleData name="x">35.88</SimpleData>
		<SimpleData name="Crop">No crop</SimpleData>
		<SimpleData name="Depth">Top Soil</SimpleData>
		<SimpleData name="Condition">Moist</SimpleData>
		<SimpleData name="C (%)">2.62</SimpleData>
		<SimpleData name="%Sand (%)">47.3</SimpleData>
		<SimpleData name="%Silt (%)">16</SimpleData>
		<SimpleData name="%Clay (%)">36.7</SimpleData>
		<SimpleData name="FAO Soil Type">ANm</SimpleData>
	</SchemaData></ExtendedData>
      <Point><coordinates>35.88,-0.87</coordinates></Point>
  </Placemark>
  <Placemark>
	<name>ANn01</name>
	<ExtendedData><SchemaData schemaUrl="#kenya_soc_anm">
		<SimpleData name="Sample Type">Soil Analysis</SimpleData>
		<SimpleData name="Analysis Name">Soil Organic Carbon (Dry Combustion) ,Soil Texture Analysis</SimpleData>
		<SimpleData name="Sample_Code">CR442SA0096</SimpleData>
		<SimpleData name="Client Name">Regenerative carbon Alliance</SimpleData>
		<SimpleData name="Farm Name">Regenerative carbon Alliance</SimpleData>
		<SimpleData name="Cooperative">Eor Emayian</SimpleData>
		<SimpleData name="y">-0.86886</SimpleData>
		<SimpleData name="x">35.88786</SimpleData>
		<SimpleData name="Crop">No crop</SimpleData>
		<SimpleData name="Depth">Top Soil</SimpleData>
		<SimpleData name="Condition">Moist</SimpleData>
		<SimpleData name="C (%)">3.59</SimpleData>
		<SimpleData name="%Sand (%)">23.6</SimpleData>
		<SimpleData name="%Silt (%)">33.6</SimpleData>
		<SimpleData name="%Clay (%)">42.8</SimpleData>
		<SimpleData name="FAO Soil Type">ANm</SimpleData>
	</SchemaData></ExtendedData>
      <Point><coordinates>35.88786,-0.86886</coordinates></Point>
  </Placemark>
  <Placemark>
	<name>ANn02</name>
	<ExtendedData><SchemaData schemaUrl="#kenya_soc_anm">
		<SimpleData name="Sample Type">Soil Analysis</SimpleData>
		<SimpleData name="Analysis Name">Soil Organic Carbon (Dry Combustion) ,Soil Texture Analysis</SimpleData>
		<SimpleData name="Sample_Code">CR442SA0097</SimpleData>
		<SimpleData name="Client Name">Regenerative carbon Alliance</SimpleData>
		<SimpleData name="Farm Name">Regenerative carbon Alliance</SimpleData>
		<SimpleData name="Cooperative">Eor Emayian</SimpleData>
		<SimpleData name="y">-0.89711</SimpleData>
		<SimpleData name="x">35.88157</SimpleData>
		<SimpleData name="Crop">No crop</SimpleData>
		<SimpleData name="Depth">Top Soil</SimpleData>
		<SimpleData name="Condition">Moist</SimpleData>
		<SimpleData name="C (%)">3.03</SimpleData>
		<SimpleData name="%Sand (%)">29.6</SimpleData>
		<SimpleData name="%Silt (%)">25.6</SimpleData>
		<SimpleData name="%Clay (%)">44.8</SimpleData>
		<SimpleData name="FAO Soil Type">ANm</SimpleData>
	</SchemaData></ExtendedData>
      <Point><coordinates>35.88157,-0.89711</coordinates></Point>
  </Placemark>
  <Placemark>
	<name>ANn013</name>
	<ExtendedData><SchemaData schemaUrl="#kenya_soc_anm">
		<SimpleData name="Sample Type">Soil Analysis</SimpleData>
		<SimpleData name="Analysis Name">Soil Organic Carbon (Dry Combustion) ,Soil Texture Analysis</SimpleData>
		<SimpleData name="Sample_Code">CR442SA0098</SimpleData>
		<SimpleData name="Client Name">Regenerative carbon Alliance</SimpleData>
		<SimpleData name="Farm Name">Regenerative carbon Alliance</SimpleData>
		<SimpleData name="Cooperative">Eor Emayian</SimpleData>
		<SimpleData name="y">-0.89578</SimpleData>
		<SimpleData name="x">35.89325</SimpleData>
		<SimpleData name="Crop">No crop</SimpleData>
		<SimpleData name="Depth">Top Soil</SimpleData>
		<SimpleData name="Condition">Moist</SimpleData>
		<SimpleData name="C (%)">5.44</SimpleData>
		<SimpleData name="%Sand (%)">25.6</SimpleData>
		<SimpleData name="%Silt (%)">35.6</SimpleData>
		<SimpleData name="%Clay (%)">38.8</SimpleData>
		<SimpleData name="FAO Soil Type">ANm</SimpleData>
	</SchemaData></ExtendedData>
      <Point><coordinates>35.89325,-0.89578</coordinates></Point>
  </Placemark>
  <Placemark>
	<name>ANn014</name>
	<ExtendedData><SchemaData schemaUrl="#kenya_soc_anm">
		<SimpleData name="Sample Type">Soil Analysis</SimpleData>
		<SimpleData name="Analysis Name">Soil Organic Carbon (Dry Combustion) ,Soil Texture Analysis</SimpleData>
		<SimpleData name="Sample_Code">CR442SA0099</SimpleData>
		<SimpleData name="Client Name">Regenerative carbon Alliance</SimpleData>
		<SimpleData name="Farm Name">Regenerative carbon Alliance</SimpleData>
		<SimpleData name="Cooperative">Eor Emayian</SimpleData>
		<SimpleData name="y">-0.89644</SimpleData>
		<SimpleData name="x">35.88452</SimpleData>
		<SimpleData name="Crop">No crop</SimpleData>
		<SimpleData name="Depth">Top Soil</SimpleData>
		<SimpleData name="Condition">Moist</SimpleData>
		<SimpleData name="C (%)">3.46</SimpleData>
		<SimpleData name="%Sand (%)">23.6</SimpleData>
		<SimpleData name="%Silt (%)">31.6</SimpleData>
		<SimpleData name="%Clay (%)">44.8</SimpleData>
		<SimpleData name="FAO Soil Type">ANm</SimpleData>
	</SchemaData></ExtendedData>
      <Point><coordinates>35.88452,-0.89644</coordinates></Point>
  </Placemark>
  <Placemark>
	<name>ANn015</name>
	<ExtendedData><SchemaData schemaUrl="#kenya_soc_anm">
		<SimpleData name="Sample Type">Soil Analysis</SimpleData>
		<SimpleData name="Analysis Name">Soil Organic Carbon (Dry Combustion) ,Soil Texture Analysis</SimpleData>
		<SimpleData name="Sample_Code">CR442SA0100</SimpleData>
		<SimpleData name="Client Name">Regenerative carbon Alliance</SimpleData>
		<SimpleData name="Farm Name">Regenerative carbon Alliance</SimpleData>
		<SimpleData name="Cooperative">Eor Emayian</SimpleData>
		<SimpleData name="y">-0.92323</SimpleData>
		<SimpleData name="x">35.88156</SimpleData>
		<SimpleData name="Crop">No crop</SimpleData>
		<SimpleData name="Depth">Top Soil</SimpleData>
		<SimpleData name="Condition">Moist</SimpleData>
		<SimpleData name="C (%)">4.9</SimpleData>
		<SimpleData name="%Sand (%)">39.6</SimpleData>
		<SimpleData name="%Silt (%)">29.6</SimpleData>
		<SimpleData name="%Clay (%)">30.8</SimpleData>
		<SimpleData name="FAO Soil Type">ANm</SimpleData>
	</SchemaData></ExtendedData>
      <Point><coordinates>35.88156,-0.92323</coordinates></Point>
  </Placemark>
  <Placemark>
	<name>ANn02</name>
	<ExtendedData><SchemaData schemaUrl="#kenya_soc_anm">
		<SimpleData name="Sample Type">Soil Analysis</SimpleData>
		<SimpleData name="Analysis Name">Soil Organic Carbon (Dry Combustion) ,Soil Texture Analysis</SimpleData>
		<SimpleData name="Sample_Code">CR442SA0101</SimpleData>
		<SimpleData name="Client Name">Regenerative carbon Alliance</SimpleData>
		<SimpleData name="Farm Name">Regenerative carbon Alliance</SimpleData>
		<SimpleData name="Cooperative">Eor Emayian</SimpleData>
		<SimpleData name="y">-0.85108</SimpleData>
		<SimpleData name="x">35.89442</SimpleData>
		<SimpleData name="Crop">No crop</SimpleData>
		<SimpleData name="Depth">Top Soil</SimpleData>
		<SimpleData name="Condition">Moist</SimpleData>
		<SimpleData name="C (%)">2.99</SimpleData>
		<SimpleData name="%Sand (%)">23.6</SimpleData>
		<SimpleData name="%Silt (%)">31.6</SimpleData>
		<SimpleData name="%Clay (%)">44.8</SimpleData>
		<SimpleData name="FAO Soil Type">ANm</SimpleData>
	</SchemaData></ExtendedData>
      <Point><coordinates>35.89442,-0.85108</coordinates></Point>
  </Placemark>
  <Placemark>
	<name>ANn03</name>
	<ExtendedData><SchemaData schemaUrl="#kenya_soc_anm">
		<SimpleData name="Sample Type">Soil Analysis</SimpleData>
		<SimpleData name="Analysis Name">Soil Organic Carbon (Dry Combustion) ,Soil Texture Analysis</SimpleData>
		<SimpleData name="Sample_Code">CR442SA0102</SimpleData>
		<SimpleData name="Client Name">Regenerative carbon Alliance</SimpleData>
		<SimpleData name="Farm Name">Regenerative carbon Alliance</SimpleData>
		<SimpleData name="Cooperative">Eor Emayian</SimpleData>
		<SimpleData name="y">-0.86893</SimpleData>
		<SimpleData name="x">35.88728</SimpleData>
		<SimpleData name="Crop">No crop</SimpleData>
		<SimpleData name="Depth">Top Soil</SimpleData>
		<SimpleData name="Condition">Moist</SimpleData>
		<SimpleData name="C (%)">3.32</SimpleData>
		<SimpleData name="%Sand (%)">21.6</SimpleData>
		<SimpleData name="%Silt (%)">35.6</SimpleData>
		<SimpleData name="%Clay (%)">42.8</SimpleData>
		<SimpleData name="FAO Soil Type">ANm</SimpleData>
	</SchemaData></ExtendedData>
      <Point><coordinates>35.88728,-0.86893</coordinates></Point>
  </Placemark>
  <Placemark>
	<name>ANn04</name>
	<ExtendedData><SchemaData schemaUrl="#kenya_soc_anm">
		<SimpleData name="Sample Type">Soil Analysis</SimpleData>
		<SimpleData name="Analysis Name">Soil Bulk Density,Soil Organic Carbon (Dry Combustion),Soil Texture Analysis</SimpleData>
		<SimpleData name="Sample_Code">CR442SA0103</SimpleData>
		<SimpleData name="Client Name">Regenerative carbon Alliance</SimpleData>
		<SimpleData name="Farm Name">Regenerative carbon Alliance</SimpleData>
		<SimpleData name="Cooperative">Eor Emayian</SimpleData>
		<SimpleData name="y">-0.86953</SimpleData>
		<SimpleData name="x">35.88717</SimpleData>
		<SimpleData name="Crop">No crop</SimpleData>
		<SimpleData name="Depth">Top Soil</SimpleData>
		<SimpleData name="Condition">Moist</SimpleData>
		<SimpleData name="C (%)">3.86</SimpleData>
		<SimpleData name="%Sand (%)">21.6</SimpleData>
		<SimpleData name="%Silt (%)">37.6</SimpleData>
		<SimpleData name="BD (g/cm3)">1.01</SimpleData>
		<SimpleData name="%Clay (%)">40.8</SimpleData>
		<SimpleData name="FAO Soil Type">ANm</SimpleData>
	</SchemaData></ExtendedData>
      <Point><coordinates>35.88717,-0.86953</coordinates></Point>
  </Placemark>
  <Placemark>
	<name>ANn05</name>
	<ExtendedData><SchemaData schemaUrl="#kenya_soc_anm">
		<SimpleData name="Sample Type">Soil Analysis</SimpleData>
		<SimpleData name="Analysis Name">Soil Organic Carbon (Dry Combustion) ,Soil Texture Analysis</SimpleData>
		<SimpleData name="Sample_Code">CR442SA0104</SimpleData>
		<SimpleData name="Client Name">Regenerative carbon Alliance</SimpleData>
		<SimpleData name="Farm Name">Regenerative carbon Alliance</SimpleData>
		<SimpleData name="Cooperative">Eor Emayian</SimpleData>
		<SimpleData name="y">-0.86893</SimpleData>
		<SimpleData name="x">35.88831</SimpleData>
		<SimpleData name="Crop">No crop</SimpleData>
		<SimpleData name="Depth">Top Soil</SimpleData>
		<SimpleData name="Condition">Moist</SimpleData>
		<SimpleData name="C (%)">3.99</SimpleData>
		<SimpleData name="%Sand (%)">23.6</SimpleData>
		<SimpleData name="%Silt (%)">35.6</SimpleData>
		<SimpleData name="%Clay (%)">40.8</SimpleData>
		<SimpleData name="FAO Soil Type">ANm</SimpleData>
	</SchemaData></ExtendedData>
      <Point><coordinates>35.88831,-0.86893</coordinates></Point>
  </Placemark>
  <Placemark>
	<name>ANn06</name>
	<ExtendedData><SchemaData schemaUrl="#kenya_soc_anm">
		<SimpleData name="Sample Type">Soil Analysis</SimpleData>
		<SimpleData name="Analysis Name">Soil Bulk Density,Soil Organic Carbon (Dry Combustion),Soil Texture Analysis</SimpleData>
		<SimpleData name="Sample_Code">CR442SA0105</SimpleData>
		<SimpleData name="Client Name">Regenerative carbon Alliance</SimpleData>
		<SimpleData name="Farm Name">Regenerative carbon Alliance</SimpleData>
		<SimpleData name="Cooperative">Eor Emayian</SimpleData>
		<SimpleData name="y">-0.86893</SimpleData>
		<SimpleData name="x">35.88903</SimpleData>
		<SimpleData name="Crop">No crop</SimpleData>
		<SimpleData name="Depth">Top Soil</SimpleData>
		<SimpleData name="Condition">Moist</SimpleData>
		<SimpleData name="C (%)">4.79</SimpleData>
		<SimpleData name="%Sand (%)">23.6</SimpleData>
		<SimpleData name="%Silt (%)">35.6</SimpleData>
		<SimpleData name="BD (g/cm3)">1.06</SimpleData>
		<SimpleData name="%Clay (%)">40.8</SimpleData>
		<SimpleData name="FAO Soil Type">ANm</SimpleData>
	</SchemaData></ExtendedData>
      <Point><coordinates>35.88903,-0.86893</coordinates></Point>
  </Placemark>
  <Placemark>
	<name>ANn07</name>
	<ExtendedData><SchemaData schemaUrl="#kenya_soc_anm">
		<SimpleData name="Sample Type">Soil Analysis</SimpleData>
		<SimpleData name="Analysis Name">Soil Organic Carbon (Dry Combustion) ,Soil Texture Analysis</SimpleData>
		<SimpleData name="Sample_Code">CR442SA0106</SimpleData>
		<SimpleData name="Client Name">Regenerative carbon Alliance</SimpleData>
		<SimpleData name="Farm Name">Regenerative carbon Alliance</SimpleData>
		<SimpleData name="Cooperative">Eor Emayian</SimpleData>
		<SimpleData name="y">-0.86839</SimpleData>
		<SimpleData name="x">35.89033</SimpleData>
		<SimpleData name="Crop">No crop</SimpleData>
		<SimpleData name="Depth">Top Soil</SimpleData>
		<SimpleData name="Condition">Moist</SimpleData>
		<SimpleData name="C (%)">5.26</SimpleData>
		<SimpleData name="%Sand (%)">29.6</SimpleData>
		<SimpleData name="%Silt (%)">35.6</SimpleData>
		<SimpleData name="%Clay (%)">34.8</SimpleData>
		<SimpleData name="FAO Soil Type">ANm</SimpleData>
	</SchemaData></ExtendedData>
      <Point><coordinates>35.89033,-0.86839</coordinates></Point>
  </Placemark>
  <Placemark>
	<name>ANn08</name>
	<ExtendedData><SchemaData schemaUrl="#kenya_soc_anm">
		<SimpleData name="Sample Type">Soil Analysis</SimpleData>
		<SimpleData name="Analysis Name">Soil Organic Carbon (Dry Combustion) ,Soil Texture Analysis</SimpleData>
		<SimpleData name="Sample_Code">CR442SA0107</SimpleData>
		<SimpleData name="Client Name">Regenerative carbon Alliance</SimpleData>
		<SimpleData name="Farm Name">Regenerative carbon Alliance</SimpleData>
		<SimpleData name="Cooperative">Eor Emayian</SimpleData>
		<SimpleData name="y">-0.86881</SimpleData>
		<SimpleData name="x">35.88975</SimpleData>
		<SimpleData name="Crop">No crop</SimpleData>
		<SimpleData name="Depth">Top Soil</SimpleData>
		<SimpleData name="Condition">Moist</SimpleData>
		<SimpleData name="C (%)">3.78</SimpleData>
		<SimpleData name="%Sand (%)">21.6</SimpleData>
		<SimpleData name="%Silt (%)">35.6</SimpleData>
		<SimpleData name="%Clay (%)">42.8</SimpleData>
		<SimpleData name="FAO Soil Type">ANm</SimpleData>
	</SchemaData></ExtendedData>
      <Point><coordinates>35.88975,-0.86881</coordinates></Point>
  </Placemark>
  <Placemark>
	<name>ANn09</name>
	<ExtendedData><SchemaData schemaUrl="#kenya_soc_anm">
		<SimpleData name="Sample Type">Soil Analysis</SimpleData>
		<SimpleData name="Analysis Name">Soil Organic Carbon (Dry Combustion) ,Soil Texture Analysis</SimpleData>
		<SimpleData name="Sample_Code">CR442SA0108</SimpleData>
		<SimpleData name="Client Name">Regenerative carbon Alliance</SimpleData>
		<SimpleData name="Farm Name">Regenerative carbon Alliance</SimpleData>
		<SimpleData name="Cooperative">Eor Emayian</SimpleData>
		<SimpleData name="y">-0.87775</SimpleData>
		<SimpleData name="x">35.88969</SimpleData>
		<SimpleData name="Crop">No crop</SimpleData>
		<SimpleData name="Depth">Top Soil</SimpleData>
		<SimpleData name="Condition">Moist</SimpleData>
		<SimpleData name="C (%)">2.47</SimpleData>
		<SimpleData name="%Sand (%)">19.6</SimpleData>
		<SimpleData name="%Silt (%)">25.6</SimpleData>
		<SimpleData name="%Clay (%)">54.8</SimpleData>
		<SimpleData name="FAO Soil Type">ANm</SimpleData>
	</SchemaData></ExtendedData>
      <Point><coordinates>35.88969,-0.87775</coordinates></Point>
  </Placemark>
  <Placemark>
	<name>ANn10</name>
	<ExtendedData><SchemaData schemaUrl="#kenya_soc_anm">
		<SimpleData name="Sample Type">Soil Analysis</SimpleData>
		<SimpleData name="Analysis Name">Soil Organic Carbon (Dry Combustion) ,Soil Texture Analysis</SimpleData>
		<SimpleData name="Sample_Code">CR442SA0109</SimpleData>
		<SimpleData name="Client Name">Regenerative carbon Alliance</SimpleData>
		<SimpleData name="Farm Name">Regenerative carbon Alliance</SimpleData>
		<SimpleData name="Cooperative">Eor Emayian</SimpleData>
		<SimpleData name="y">-0.87739</SimpleData>
		<SimpleData name="x">35.88997</SimpleData>
		<SimpleData name="Crop">No crop</SimpleData>
		<SimpleData name="Depth">Top Soil</SimpleData>
		<SimpleData name="Condition">Moist</SimpleData>
		<SimpleData name="C (%)">2.62</SimpleData>
		<SimpleData name="%Sand (%)">35.6</SimpleData>
		<SimpleData name="%Silt (%)">29.6</SimpleData>
		<SimpleData name="%Clay (%)">34.8</SimpleData>
		<SimpleData name="FAO Soil Type">ANm</SimpleData>
	</SchemaData></ExtendedData>
      <Point><coordinates>35.88997,-0.87739</coordinates></Point>
  </Placemark>
  <Placemark>
	<name>ANn11</name>
	<ExtendedData><SchemaData schemaUrl="#kenya_soc_anm">
		<SimpleData name="Sample Type">Soil Analysis</SimpleData>
		<SimpleData name="Analysis Name">Soil Organic Carbon (Dry Combustion) ,Soil Texture Analysis</SimpleData>
		<SimpleData name="Sample_Code">CR442SA0110</SimpleData>
		<SimpleData name="Client Name">Regenerative carbon Alliance</SimpleData>
		<SimpleData name="Farm Name">Regenerative carbon Alliance</SimpleData>
		<SimpleData name="Cooperative">Eor Emayian</SimpleData>
		<SimpleData name="y">-0.87756</SimpleData>
		<SimpleData name="x">35.88953</SimpleData>
		<SimpleData name="Crop">No crop</SimpleData>
		<SimpleData name="Depth">Top Soil</SimpleData>
		<SimpleData name="Condition">Moist</SimpleData>
		<SimpleData name="C (%)">2.64</SimpleData>
		<SimpleData name="%Sand (%)">21.6</SimpleData>
		<SimpleData name="%Silt (%)">35.6</SimpleData>
		<SimpleData name="%Clay (%)">42.8</SimpleData>
		<SimpleData name="FAO Soil Type">ANm</SimpleData>
	</SchemaData></ExtendedData>
      <Point><coordinates>35.88953,-0.87756</coordinates></Point>
  </Placemark>
  <Placemark>
	<name>EE50</name>
	<ExtendedData><SchemaData schemaUrl="#kenya_soc_anm">
		<SimpleData name="Sample Type">Soil Analysis</SimpleData>
		<SimpleData name="Analysis Name">Soil Bulk Density,Soil Organic Carbon (Dry Combustion),Soil Texture Analysis</SimpleData>
		<SimpleData name="Sample_Code">CR442SA0111</SimpleData>
		<SimpleData name="Client Name">Regenerative carbon Alliance</SimpleData>
		<SimpleData name="Farm Name">Regenerative carbon Alliance</SimpleData>
		<SimpleData name="Cooperative">Eor Emayian</SimpleData>
		<SimpleData name="y">-0.85136</SimpleData>
		<SimpleData name="x">35.89619</SimpleData>
		<SimpleData name="Crop">No crop</SimpleData>
		<SimpleData name="Depth">Top Soil</SimpleData>
		<SimpleData name="Condition">Moist</SimpleData>
		<SimpleData name="C (%)">6.21</SimpleData>
		<SimpleData name="%Sand (%)">25.6</SimpleData>
		<SimpleData name="%Silt (%)">33.6</SimpleData>
		<SimpleData name="BD (g/cm3)">0.93</SimpleData>
		<SimpleData name="%Clay (%)">40.8</SimpleData>
		<SimpleData name="FAO Soil Type">ANm</SimpleData>
	</SchemaData></ExtendedData>
      <Point><coordinates>35.89619,-0.85136</coordinates></Point>
  </Placemark>
  <Placemark>
	<name>EE51</name>
	<ExtendedData><SchemaData schemaUrl="#kenya_soc_anm">
		<SimpleData name="Sample Type">Soil Analysis</SimpleData>
		<SimpleData name="Analysis Name">Soil Bulk Density,Soil Organic Carbon (Dry Combustion),Soil Texture Analysis</SimpleData>
		<SimpleData name="Sample_Code">CR442SA0112</SimpleData>
		<SimpleData name="Client Name">Regenerative carbon Alliance</SimpleData>
		<SimpleData name="Farm Name">Regenerative carbon Alliance</SimpleData>
		<SimpleData name="Cooperative">Eor Emayian</SimpleData>
		<SimpleData name="y">-0.83719</SimpleData>
		<SimpleData name="x">35.88608</SimpleData>
		<SimpleData name="Crop">No crop</SimpleData>
		<SimpleData name="Depth">Top Soil</SimpleData>
		<SimpleData name="Condition">Moist</SimpleData>
		<SimpleData name="C (%)">5.41</SimpleData>
		<SimpleData name="%Sand (%)">27.6</SimpleData>
		<SimpleData name="%Silt (%)">35.6</SimpleData>
		<SimpleData name="BD (g/cm3)">0.87</SimpleData>
		<SimpleData name="%Clay (%)">36.8</SimpleData>
		<SimpleData name="FAO Soil Type">ANm</SimpleData>
	</SchemaData></ExtendedData>
      <Point><coordinates>35.88608,-0.83719</coordinates></Point>
  </Placemark>
  <Placemark>
	<name>EE52</name>
	<ExtendedData><SchemaData schemaUrl="#kenya_soc_anm">
		<SimpleData name="Sample Type">Soil Analysis</SimpleData>
		<SimpleData name="Analysis Name">Soil Bulk Density,Soil Organic Carbon (Dry Combustion),Soil Texture Analysis</SimpleData>
		<SimpleData name="Sample_Code">CR442SA0113</SimpleData>
		<SimpleData name="Client Name">Regenerative carbon Alliance</SimpleData>
		<SimpleData name="Farm Name">Regenerative carbon Alliance</SimpleData>
		<SimpleData name="Cooperative">Eor Emayian</SimpleData>
		<SimpleData name="y">-0.84026</SimpleData>
		<SimpleData name="x">35.89593</SimpleData>
		<SimpleData name="Crop">No crop</SimpleData>
		<SimpleData name="Depth">Top Soil</SimpleData>
		<SimpleData name="Condition">Moist</SimpleData>
		<SimpleData name="C (%)">3</SimpleData>
		<SimpleData name="%Sand (%)">23.6</SimpleData>
		<SimpleData name="%Silt (%)">29.6</SimpleData>
		<SimpleData name="BD (g/cm3)">1.05</SimpleData>
		<SimpleData name="%Clay (%)">46.8</SimpleData>
		<SimpleData name="FAO Soil Type">ANm</SimpleData>
	</SchemaData></ExtendedData>
      <Point><coordinates>35.89593,-0.84026</coordinates></Point>
  </Placemark>
  <Placemark>
	<name>EE53</name>
	<ExtendedData><SchemaData schemaUrl="#kenya_soc_anm">
		<SimpleData name="Sample Type">Soil Analysis</SimpleData>
		<SimpleData name="Analysis Name">Soil Bulk Density,Soil Organic Carbon (Dry Combustion),Soil Texture Analysis</SimpleData>
		<SimpleData name="Sample_Code">CR442SA0114</SimpleData>
		<SimpleData name="Client Name">Regenerative carbon Alliance</SimpleData>
		<SimpleData name="Farm Name">Regenerative carbon Alliance</SimpleData>
		<SimpleData name="Cooperative">Eor Emayian</SimpleData>
		<SimpleData name="y">-0.84635</SimpleData>
		<SimpleData name="x">35.89275</SimpleData>
		<SimpleData name="Crop">No crop</SimpleData>
		<SimpleData name="Depth">Top Soil</SimpleData>
		<SimpleData name="Condition">Moist</SimpleData>
		<SimpleData name="C (%)">4.5</SimpleData>
		<SimpleData name="%Sand (%)">27.6</SimpleData>
		<SimpleData name="%Silt (%)">29.6</SimpleData>
		<SimpleData name="BD (g/cm3)">0.9</SimpleData>
		<SimpleData name="%Clay (%)">42.8</SimpleData>
		<SimpleData name="FAO Soil Type">ANm</SimpleData>
	</SchemaData></ExtendedData>
      <Point><coordinates>35.89275,-0.84635</coordinates></Point>
  </Placemark>
  <Placemark>
	<name>EE54</name>
	<ExtendedData><SchemaData schemaUrl="#kenya_soc_anm">
		<SimpleData name="Sample Type">Soil Analysis</SimpleData>
		<SimpleData name="Analysis Name">Soil Bulk Density,Soil Organic Carbon (Dry Combustion),Soil Texture Analysis</SimpleData>
		<SimpleData name="Sample_Code">CR442SA0115</SimpleData>
		<SimpleData name="Client Name">Regenerative carbon Alliance</SimpleData>
		<SimpleData name="Farm Name">Regenerative carbon Alliance</SimpleData>
		<SimpleData name="Cooperative">Eor Emayian</SimpleData>
		<SimpleData name="y">-0.84242</SimpleData>
		<SimpleData name="x">35.89262</SimpleData>
		<SimpleData name="Crop">No crop</SimpleData>
		<SimpleData name="Depth">Top Soil</SimpleData>
		<SimpleData name="Condition">Moist</SimpleData>
		<SimpleData name="C (%)">3.46</SimpleData>
		<SimpleData name="%Sand (%)">23.6</SimpleData>
		<SimpleData name="%Silt (%)">31.6</SimpleData>
		<SimpleData name="BD (g/cm3)">0.96</SimpleData>
		<SimpleData name="%Clay (%)">44.8</SimpleData>
		<SimpleData name="FAO Soil Type">ANm</SimpleData>
	</SchemaData></ExtendedData>
      <Point><coordinates>35.89262,-0.84242</coordinates></Point>
  </Placemark>
  <Placemark>
	<name>EE55</name>
	<ExtendedData><SchemaData schemaUrl="#kenya_soc_anm">
		<SimpleData name="Sample Type">Soil Analysis</SimpleData>
		<SimpleData name="Analysis Name">Soil Bulk Density,Soil Organic Carbon (Dry Combustion),Soil Texture Analysis</SimpleData>
		<SimpleData name="Sample_Code">CR442SA0116</SimpleData>
		<SimpleData name="Client Name">Regenerative carbon Alliance</SimpleData>
		<SimpleData name="Farm Name">Regenerative carbon Alliance</SimpleData>
		<SimpleData name="Cooperative">Eor Emayian</SimpleData>
		<SimpleData name="y">-0.84147</SimpleData>
		<SimpleData name="x">35.89258</SimpleData>
		<SimpleData name="Crop">No crop</SimpleData>
		<SimpleData name="Depth">Top Soil</SimpleData>
		<SimpleData name="Condition">Moist</SimpleData>
		<SimpleData name="C (%)">4.2</SimpleData>
		<SimpleData name="%Sand (%)">21.6</SimpleData>
		<SimpleData name="%Silt (%)">35.6</SimpleData>
		<SimpleData name="BD (g/cm3)">0.95</SimpleData>
		<SimpleData name="%Clay (%)">42.8</SimpleData>
		<SimpleData name="FAO Soil Type">ANm</SimpleData>
	</SchemaData></ExtendedData>
      <Point><coordinates>35.89258,-0.84147</coordinates></Point>
  </Placemark>
  <Placemark>
	<name>EE56</name>
	<ExtendedData><SchemaData schemaUrl="#kenya_soc_anm">
		<SimpleData name="Sample Type">Soil Analysis</SimpleData>
		<SimpleData name="Analysis Name">Soil Organic Carbon (Dry Combustion) ,Soil Texture Analysis</SimpleData>
		<SimpleData name="Sample_Code">CR442SA0117</SimpleData>
		<SimpleData name="Client Name">Regenerative carbon Alliance</SimpleData>
		<SimpleData name="Farm Name">Regenerative carbon Alliance</SimpleData>
		<SimpleData name="Cooperative">Eor Emayian</SimpleData>
		<SimpleData name="y">-0.83955</SimpleData>
		<SimpleData name="x">35.89432</SimpleData>
		<SimpleData name="Crop">No crop</SimpleData>
		<SimpleData name="Depth">Top Soil</SimpleData>
		<SimpleData name="Condition">Moist</SimpleData>
		<SimpleData name="C (%)">2.78</SimpleData>
		<SimpleData name="%Sand (%)">31.6</SimpleData>
		<SimpleData name="%Silt (%)">27.6</SimpleData>
		<SimpleData name="%Clay (%)">40.8</SimpleData>
		<SimpleData name="FAO Soil Type">ANm</SimpleData>
	</SchemaData></ExtendedData>
      <Point><coordinates>35.89432,-0.83955</coordinates></Point>
  </Placemark>
  <Placemark>
	<name>EE57</name>
	<ExtendedData><SchemaData schemaUrl="#kenya_soc_anm">
		<SimpleData name="Sample Type">Soil Analysis</SimpleData>
		<SimpleData name="Analysis Name">Soil Organic Carbon (Dry Combustion) ,Soil Texture Analysis</SimpleData>
		<SimpleData name="Sample_Code">CR442SA0118</SimpleData>
		<SimpleData name="Client Name">Regenerative carbon Alliance</SimpleData>
		<SimpleData name="Farm Name">Regenerative carbon Alliance</SimpleData>
		<SimpleData name="Cooperative">Eor Emayian</SimpleData>
		<SimpleData name="y">-0.84075</SimpleData>
		<SimpleData name="x">35.89267</SimpleData>
		<SimpleData name="Crop">No crop</SimpleData>
		<SimpleData name="Depth">Top Soil</SimpleData>
		<SimpleData name="Condition">Moist</SimpleData>
		<SimpleData name="C (%)">3.36</SimpleData>
		<SimpleData name="%Sand (%)">29.6</SimpleData>
		<SimpleData name="%Silt (%)">31.6</SimpleData>
		<SimpleData name="%Clay (%)">38.8</SimpleData>
		<SimpleData name="FAO Soil Type">ANm</SimpleData>
	</SchemaData></ExtendedData>
      <Point><coordinates>35.89267,-0.84075</coordinates></Point>
  </Placemark>
  <Placemark>
	<name>EE58</name>
	<ExtendedData><SchemaData schemaUrl="#kenya_soc_anm">
		<SimpleData name="Sample Type">Soil Analysis</SimpleData>
		<SimpleData name="Analysis Name">Soil Organic Carbon (Dry Combustion) ,Soil Texture Analysis</SimpleData>
		<SimpleData name="Sample_Code">CR442SA0119</SimpleData>
		<SimpleData name="Client Name">Regenerative carbon Alliance</SimpleData>
		<SimpleData name="Farm Name">Regenerative carbon Alliance</SimpleData>
		<SimpleData name="Cooperative">Eor Emayian</SimpleData>
		<SimpleData name="y">-0.83858</SimpleData>
		<SimpleData name="x">35.89262</SimpleData>
		<SimpleData name="Crop">No crop</SimpleData>
		<SimpleData name="Depth">Top Soil</SimpleData>
		<SimpleData name="Condition">Moist</SimpleData>
		<SimpleData name="C (%)">2.94</SimpleData>
		<SimpleData name="%Sand (%)">29.6</SimpleData>
		<SimpleData name="%Silt (%)">33.6</SimpleData>
		<SimpleData name="%Clay (%)">36.8</SimpleData>
		<SimpleData name="FAO Soil Type">ANm</SimpleData>
	</SchemaData></ExtendedData>
      <Point><coordinates>35.89262,-0.83858</coordinates></Point>
  </Placemark>
  <Placemark>
	<name>EE59</name>
	<ExtendedData><SchemaData schemaUrl="#kenya_soc_anm">
		<SimpleData name="Sample Type">Soil Analysis</SimpleData>
		<SimpleData name="Analysis Name">Soil Organic Carbon (Dry Combustion) ,Soil Texture Analysis</SimpleData>
		<SimpleData name="Sample_Code">CR442SA0120</SimpleData>
		<SimpleData name="Client Name">Regenerative carbon Alliance</SimpleData>
		<SimpleData name="Farm Name">Regenerative carbon Alliance</SimpleData>
		<SimpleData name="Cooperative">Eor Emayian</SimpleData>
		<SimpleData name="y">-0.83058</SimpleData>
		<SimpleData name="x">35.89364</SimpleData>
		<SimpleData name="Crop">No crop</SimpleData>
		<SimpleData name="Depth">Top Soil</SimpleData>
		<SimpleData name="Condition">Moist</SimpleData>
		<SimpleData name="C (%)">4.49</SimpleData>
		<SimpleData name="%Sand (%)">23.6</SimpleData>
		<SimpleData name="%Silt (%)">35.6</SimpleData>
		<SimpleData name="%Clay (%)">40.8</SimpleData>
		<SimpleData name="FAO Soil Type">ANm</SimpleData>
	</SchemaData></ExtendedData>
      <Point><coordinates>35.89364,-0.83058</coordinates></Point>
  </Placemark>
  <Placemark>
	<name>EE60</name>
	<ExtendedData><SchemaData schemaUrl="#kenya_soc_anm">
		<SimpleData name="Sample Type">Soil Analysis</SimpleData>
		<SimpleData name="Analysis Name">Soil Organic Carbon (Dry Combustion) ,Soil Texture Analysis</SimpleData>
		<SimpleData name="Sample_Code">CR442SA0121</SimpleData>
		<SimpleData name="Client Name">Regenerative carbon Alliance</SimpleData>
		<SimpleData name="Farm Name">Regenerative carbon Alliance</SimpleData>
		<SimpleData name="Cooperative">Eor Emayian</SimpleData>
		<SimpleData name="y">-0.84248</SimpleData>
		<SimpleData name="x">35.89392</SimpleData>
		<SimpleData name="Crop">No crop</SimpleData>
		<SimpleData name="Depth">Top Soil</SimpleData>
		<SimpleData name="Condition">Moist</SimpleData>
		<SimpleData name="C (%)">3.3</SimpleData>
		<SimpleData name="%Sand (%)">29.6</SimpleData>
		<SimpleData name="%Silt (%)">33.6</SimpleData>
		<SimpleData name="%Clay (%)">36.8</SimpleData>
		<SimpleData name="FAO Soil Type">ANm</SimpleData>
	</SchemaData></ExtendedData>
      <Point><coordinates>35.89392,-0.84248</coordinates></Point>
  </Placemark>
  <Placemark>
	<name>EE61</name>
	<ExtendedData><SchemaData schemaUrl="#kenya_soc_anm">
		<SimpleData name="Sample Type">Soil Analysis</SimpleData>
		<SimpleData name="Analysis Name">Soil Organic Carbon (Dry Combustion) ,Soil Texture Analysis</SimpleData>
		<SimpleData name="Sample_Code">CR442SA0122</SimpleData>
		<SimpleData name="Client Name">Regenerative carbon Alliance</SimpleData>
		<SimpleData name="Farm Name">Regenerative carbon Alliance</SimpleData>
		<SimpleData name="Cooperative">Eor Emayian</SimpleData>
		<SimpleData name="y">-0.83926</SimpleData>
		<SimpleData name="x">35.89578</SimpleData>
		<SimpleData name="Crop">No crop</SimpleData>
		<SimpleData name="Depth">Top Soil</SimpleData>
		<SimpleData name="Condition">Moist</SimpleData>
		<SimpleData name="C (%)">3.8</SimpleData>
		<SimpleData name="%Sand (%)">25.6</SimpleData>
		<SimpleData name="%Silt (%)">33.6</SimpleData>
		<SimpleData name="%Clay (%)">40.8</SimpleData>
		<SimpleData name="FAO Soil Type">ANm</SimpleData>
	</SchemaData></ExtendedData>
      <Point><coordinates>35.89578,-0.83926</coordinates></Point>
  </Placemark>
  <Placemark>
	<name>EE62</name>
	<ExtendedData><SchemaData schemaUrl="#kenya_soc_anm">
		<SimpleData name="Sample Type">Soil Analysis</SimpleData>
		<SimpleData name="Analysis Name">Soil Organic Carbon (Dry Combustion) ,Soil Texture Analysis</SimpleData>
		<SimpleData name="Sample_Code">CR442SA0123</SimpleData>
		<SimpleData name="Client Name">Regenerative carbon Alliance</SimpleData>
		<SimpleData name="Farm Name">Regenerative carbon Alliance</SimpleData>
		<SimpleData name="Cooperative">Eor Emayian</SimpleData>
		<SimpleData name="y">-0.84575</SimpleData>
		<SimpleData name="x">35.89623</SimpleData>
		<SimpleData name="Crop">No crop</SimpleData>
		<SimpleData name="Depth">Top Soil</SimpleData>
		<SimpleData name="Condition">Moist</SimpleData>
		<SimpleData name="C (%)">3.18</SimpleData>
		<SimpleData name="%Sand (%)">31.6</SimpleData>
		<SimpleData name="%Silt (%)">31.6</SimpleData>
		<SimpleData name="%Clay (%)">36.8</SimpleData>
		<SimpleData name="FAO Soil Type">ANm</SimpleData>
	</SchemaData></ExtendedData>
      <Point><coordinates>35.89623,-0.84575</coordinates></Point>
  </Placemark>
  <Placemark>
	<name>EE63</name>
	<ExtendedData><SchemaData schemaUrl="#kenya_soc_anm">
		<SimpleData name="Sample Type">Soil Analysis</SimpleData>
		<SimpleData name="Analysis Name">Soil Organic Carbon (Dry Combustion) ,Soil Texture Analysis</SimpleData>
		<SimpleData name="Sample_Code">CR442SA0124</SimpleData>
		<SimpleData name="Client Name">Regenerative carbon Alliance</SimpleData>
		<SimpleData name="Farm Name">Regenerative carbon Alliance</SimpleData>
		<SimpleData name="Cooperative">Eor Emayian</SimpleData>
		<SimpleData name="y">-0.84235</SimpleData>
		<SimpleData name="x">35.89461</SimpleData>
		<SimpleData name="Crop">No crop</SimpleData>
		<SimpleData name="Depth">Top Soil</SimpleData>
		<SimpleData name="Condition">Moist</SimpleData>
		<SimpleData name="C (%)">4.25</SimpleData>
		<SimpleData name="%Sand (%)">29.6</SimpleData>
		<SimpleData name="%Silt (%)">37.6</SimpleData>
		<SimpleData name="%Clay (%)">32.8</SimpleData>
		<SimpleData name="FAO Soil Type">ANm</SimpleData>
	</SchemaData></ExtendedData>
      <Point><coordinates>35.89461,-0.84235</coordinates></Point>
  </Placemark>
  <Placemark>
	<name>EE64</name>
	<ExtendedData><SchemaData schemaUrl="#kenya_soc_anm">
		<SimpleData name="Sample Type">Soil Analysis</SimpleData>
		<SimpleData name="Analysis Name">Soil Organic Carbon (Dry Combustion) ,Soil Texture Analysis</SimpleData>
		<SimpleData name="Sample_Code">CR442SA0125</SimpleData>
		<SimpleData name="Client Name">Regenerative carbon Alliance</SimpleData>
		<SimpleData name="Farm Name">Regenerative carbon Alliance</SimpleData>
		<SimpleData name="Cooperative">Eor Emayian</SimpleData>
		<SimpleData name="y">-0.83833</SimpleData>
		<SimpleData name="x">35.89381</SimpleData>
		<SimpleData name="Crop">No crop</SimpleData>
		<SimpleData name="Depth">Top Soil</SimpleData>
		<SimpleData name="Condition">Moist</SimpleData>
		<SimpleData name="C (%)">4.41</SimpleData>
		<SimpleData name="%Sand (%)">27.6</SimpleData>
		<SimpleData name="%Silt (%)">35.6</SimpleData>
		<SimpleData name="%Clay (%)">36.8</SimpleData>
		<SimpleData name="FAO Soil Type">ANm</SimpleData>
	</SchemaData></ExtendedData>
      <Point><coordinates>35.89381,-0.83833</coordinates></Point>
  </Placemark>
  <Placemark>
	<name>L50</name>
	<ExtendedData><SchemaData schemaUrl="#kenya_soc_anm">
		<SimpleData name="Sample Type">Soil Analysis</SimpleData>
		<SimpleData name="Analysis Name">Soil Organic Carbon (Dry Combustion) ,Soil Texture Analysis</SimpleData>
		<SimpleData name="Sample_Code">CR442SA0165</SimpleData>
		<SimpleData name="Client Name">Regenerative carbon Alliance</SimpleData>
		<SimpleData name="Farm Name">Regenerative carbon Alliance</SimpleData>
		<SimpleData name="Cooperative">Lanyuak</SimpleData>
		<SimpleData name="y">-0.82708</SimpleData>
		<SimpleData name="x">35.88881</SimpleData>
		<SimpleData name="Crop">No crop</SimpleData>
		<SimpleData name="Depth">Top Soil</SimpleData>
		<SimpleData name="Condition">Moist</SimpleData>
		<SimpleData name="C (%)">2.92</SimpleData>
		<SimpleData name="%Sand (%)">25.6</SimpleData>
		<SimpleData name="%Silt (%)">33.6</SimpleData>
		<SimpleData name="%Clay (%)">40.8</SimpleData>
		<SimpleData name="FAO Soil Type">ANm</SimpleData>
	</SchemaData></ExtendedData>
      <Point><coordinates>35.88881,-0.82708</coordinates></Point>
  </Placemark>
  <Placemark>
	<name>L52</name>
	<ExtendedData><SchemaData schemaUrl="#kenya_soc_anm">
		<SimpleData name="Sample Type">Soil Analysis</SimpleData>
		<SimpleData name="Analysis Name">Soil Organic Carbon (Dry Combustion) ,Soil Texture Analysis</SimpleData>
		<SimpleData name="Sample_Code">CR442SA0166</SimpleData>
		<SimpleData name="Client Name">Regenerative carbon Alliance</SimpleData>
		<SimpleData name="Farm Name">Regenerative carbon Alliance</SimpleData>
		<SimpleData name="Cooperative">Lanyuak</SimpleData>
		<SimpleData name="y">-0.81392</SimpleData>
		<SimpleData name="x">35.89258</SimpleData>
		<SimpleData name="Crop">No crop</SimpleData>
		<SimpleData name="Depth">Top Soil</SimpleData>
		<SimpleData name="Condition">Moist</SimpleData>
		<SimpleData name="C (%)">3.72</SimpleData>
		<SimpleData name="%Sand (%)">27.6</SimpleData>
		<SimpleData name="%Silt (%)">31.6</SimpleData>
		<SimpleData name="%Clay (%)">40.8</SimpleData>
		<SimpleData name="FAO Soil Type">ANm</SimpleData>
	</SchemaData></ExtendedData>
      <Point><coordinates>35.89258,-0.81392</coordinates></Point>
  </Placemark>
  <Placemark>
	<name>L53</name>
	<ExtendedData><SchemaData schemaUrl="#kenya_soc_anm">
		<SimpleData name="Sample Type">Soil Analysis</SimpleData>
		<SimpleData name="Analysis Name">Soil Organic Carbon (Dry Combustion) ,Soil Texture Analysis</SimpleData>
		<SimpleData name="Sample_Code">CR442SA0167</SimpleData>
		<SimpleData name="Client Name">Regenerative carbon Alliance</SimpleData>
		<SimpleData name="Farm Name">Regenerative carbon Alliance</SimpleData>
		<SimpleData name="Cooperative">Lanyuak</SimpleData>
		<SimpleData name="y">-0.8155</SimpleData>
		<SimpleData name="x">35.8922</SimpleData>
		<SimpleData name="Crop">No crop</SimpleData>
		<SimpleData name="Depth">Top Soil</SimpleData>
		<SimpleData name="Condition">Moist</SimpleData>
		<SimpleData name="C (%)">4.19</SimpleData>
		<SimpleData name="%Sand (%)">27.6</SimpleData>
		<SimpleData name="%Silt (%)">35.6</SimpleData>
		<SimpleData name="%Clay (%)">36.8</SimpleData>
		<SimpleData name="FAO Soil Type">ANm</SimpleData>
	</SchemaData></ExtendedData>
      <Point><coordinates>35.8922,-0.8155</coordinates></Point>
  </Placemark>
  <Placemark>
	<name>L54</name>
	<ExtendedData><SchemaData schemaUrl="#kenya_soc_anm">
		<SimpleData name="Sample Type">Soil Analysis</SimpleData>
		<SimpleData name="Analysis Name">Soil Organic Carbon (Dry Combustion) ,Soil Texture Analysis</SimpleData>
		<SimpleData name="Sample_Code">CR442SA0168</SimpleData>
		<SimpleData name="Client Name">Regenerative carbon Alliance</SimpleData>
		<SimpleData name="Farm Name">Regenerative carbon Alliance</SimpleData>
		<SimpleData name="Cooperative">Lanyuak</SimpleData>
		<SimpleData name="y">-0.82103</SimpleData>
		<SimpleData name="x">35.88889</SimpleData>
		<SimpleData name="Crop">No crop</SimpleData>
		<SimpleData name="Depth">Top Soil</SimpleData>
		<SimpleData name="Condition">Moist</SimpleData>
		<SimpleData name="C (%)">4.83</SimpleData>
		<SimpleData name="%Sand (%)">27.6</SimpleData>
		<SimpleData name="%Silt (%)">33.6</SimpleData>
		<SimpleData name="%Clay (%)">38.8</SimpleData>
		<SimpleData name="FAO Soil Type">ANm</SimpleData>
	</SchemaData></ExtendedData>
      <Point><coordinates>35.88889,-0.82103</coordinates></Point>
  </Placemark>
  <Placemark>
	<name>L55</name>
	<ExtendedData><SchemaData schemaUrl="#kenya_soc_anm">
		<SimpleData name="Sample Type">Soil Analysis</SimpleData>
		<SimpleData name="Analysis Name">Soil Organic Carbon (Dry Combustion) ,Soil Texture Analysis</SimpleData>
		<SimpleData name="Sample_Code">CR442SA0169</SimpleData>
		<SimpleData name="Client Name">Regenerative carbon Alliance</SimpleData>
		<SimpleData name="Farm Name">Regenerative carbon Alliance</SimpleData>
		<SimpleData name="Cooperative">Lanyuak</SimpleData>
		<SimpleData name="y">-0.82472</SimpleData>
		<SimpleData name="x">35.90103</SimpleData>
		<SimpleData name="Crop">No crop</SimpleData>
		<SimpleData name="Depth">Top Soil</SimpleData>
		<SimpleData name="Condition">Moist</SimpleData>
		<SimpleData name="C (%)">3.85</SimpleData>
		<SimpleData name="%Sand (%)">25.6</SimpleData>
		<SimpleData name="%Silt (%)">31.6</SimpleData>
		<SimpleData name="%Clay (%)">42.8</SimpleData>
		<SimpleData name="FAO Soil Type">ANm</SimpleData>
	</SchemaData></ExtendedData>
      <Point><coordinates>35.90103,-0.82472</coordinates></Point>
  </Placemark>
  <Placemark>
	<name>L56</name>
	<ExtendedData><SchemaData schemaUrl="#kenya_soc_anm">
		<SimpleData name="Sample Type">Soil Analysis</SimpleData>
		<SimpleData name="Analysis Name">Soil Organic Carbon (Dry Combustion) ,Soil Texture Analysis</SimpleData>
		<SimpleData name="Sample_Code">CR442SA0170</SimpleData>
		<SimpleData name="Client Name">Regenerative carbon Alliance</SimpleData>
		<SimpleData name="Farm Name">Regenerative carbon Alliance</SimpleData>
		<SimpleData name="Cooperative">Lanyuak</SimpleData>
		<SimpleData name="y">-0.80044</SimpleData>
		<SimpleData name="x">35.896</SimpleData>
		<SimpleData name="Crop">No crop</SimpleData>
		<SimpleData name="Depth">Top Soil</SimpleData>
		<SimpleData name="Condition">Moist</SimpleData>
		<SimpleData name="C (%)">4.95</SimpleData>
		<SimpleData name="%Sand (%)">31.3</SimpleData>
		<SimpleData name="%Silt (%)">30</SimpleData>
		<SimpleData name="%Clay (%)">38.7</SimpleData>
		<SimpleData name="FAO Soil Type">ANm</SimpleData>
	</SchemaData></ExtendedData>
      <Point><coordinates>35.896,-0.80044</coordinates></Point>
  </Placemark>
  <Placemark>
	<name>L57</name>
	<ExtendedData><SchemaData schemaUrl="#kenya_soc_anm">
		<SimpleData name="Sample Type">Soil Analysis</SimpleData>
		<SimpleData name="Analysis Name">Soil Bulk Density,Soil Organic Carbon (Dry Combustion),Soil Texture Analysis</SimpleData>
		<SimpleData name="Sample_Code">CR442SA0171</SimpleData>
		<SimpleData name="Client Name">Regenerative carbon Alliance</SimpleData>
		<SimpleData name="Farm Name">Regenerative carbon Alliance</SimpleData>
		<SimpleData name="Cooperative">Lanyuak</SimpleData>
		<SimpleData name="y">-0.79433</SimpleData>
		<SimpleData name="x">35.8938</SimpleData>
		<SimpleData name="Crop">No crop</SimpleData>
		<SimpleData name="Depth">Top Soil</SimpleData>
		<SimpleData name="Condition">Moist</SimpleData>
		<SimpleData name="C (%)">4.62</SimpleData>
		<SimpleData name="%Sand (%)">29.3</SimpleData>
		<SimpleData name="%Silt (%)">34</SimpleData>
		<SimpleData name="BD (g/cm3)">0.93</SimpleData>
		<SimpleData name="%Clay (%)">36.7</SimpleData>
		<SimpleData name="FAO Soil Type">ANm</SimpleData>
	</SchemaData></ExtendedData>
      <Point><coordinates>35.8938,-0.79433</coordinates></Point>
  </Placemark>
  <Placemark>
	<name>L58</name>
	<ExtendedData><SchemaData schemaUrl="#kenya_soc_anm">
		<SimpleData name="Sample Type">Soil Analysis</SimpleData>
		<SimpleData name="Analysis Name">Soil Bulk Density,Soil Organic Carbon (Dry Combustion),Soil Texture Analysis</SimpleData>
		<SimpleData name="Sample_Code">CR442SA0172</SimpleData>
		<SimpleData name="Client Name">Regenerative carbon Alliance</SimpleData>
		<SimpleData name="Farm Name">Regenerative carbon Alliance</SimpleData>
		<SimpleData name="Cooperative">Lanyuak</SimpleData>
		<SimpleData name="y">-0.78786</SimpleData>
		<SimpleData name="x">35.89042</SimpleData>
		<SimpleData name="Crop">No crop</SimpleData>
		<SimpleData name="Depth">Top Soil</SimpleData>
		<SimpleData name="Condition">Moist</SimpleData>
		<SimpleData name="C (%)">4.89</SimpleData>
		<SimpleData name="%Sand (%)">29.3</SimpleData>
		<SimpleData name="%Silt (%)">30</SimpleData>
		<SimpleData name="BD (g/cm3)">0.9</SimpleData>
		<SimpleData name="%Clay (%)">40.7</SimpleData>
		<SimpleData name="FAO Soil Type">ANm</SimpleData>
	</SchemaData></ExtendedData>
      <Point><coordinates>35.89042,-0.78786</coordinates></Point>
  </Placemark>
  <Placemark>
	<name>L59</name>
	<ExtendedData><SchemaData schemaUrl="#kenya_soc_anm">
		<SimpleData name="Sample Type">Soil Analysis</SimpleData>
		<SimpleData name="Analysis Name">Soil Bulk Density,Soil Organic Carbon (Dry Combustion),Soil Texture Analysis</SimpleData>
		<SimpleData name="Sample_Code">CR442SA0173</SimpleData>
		<SimpleData name="Client Name">Regenerative carbon Alliance</SimpleData>
		<SimpleData name="Farm Name">Regenerative carbon Alliance</SimpleData>
		<SimpleData name="Cooperative">Lanyuak</SimpleData>
		<SimpleData name="y">-0.78242</SimpleData>
		<SimpleData name="x">35.89213</SimpleData>
		<SimpleData name="Crop">No crop</SimpleData>
		<SimpleData name="Depth">Top Soil</SimpleData>
		<SimpleData name="Condition">Moist</SimpleData>
		<SimpleData name="C (%)">4.19</SimpleData>
		<SimpleData name="%Sand (%)">25.3</SimpleData>
		<SimpleData name="%Silt (%)">34</SimpleData>
		<SimpleData name="BD (g/cm3)">0.96</SimpleData>
		<SimpleData name="%Clay (%)">40.7</SimpleData>
		<SimpleData name="FAO Soil Type">ANm</SimpleData>
	</SchemaData></ExtendedData>
      <Point><coordinates>35.89213,-0.78242</coordinates></Point>
  </Placemark>
  <Placemark>
	<name>L60</name>
	<ExtendedData><SchemaData schemaUrl="#kenya_soc_anm">
		<SimpleData name="Sample Type">Soil Analysis</SimpleData>
		<SimpleData name="Analysis Name">Soil Bulk Density,Soil Organic Carbon (Dry Combustion),Soil Texture Analysis</SimpleData>
		<SimpleData name="Sample_Code">CR442SA0174</SimpleData>
		<SimpleData name="Client Name">Regenerative carbon Alliance</SimpleData>
		<SimpleData name="Farm Name">Regenerative carbon Alliance</SimpleData>
		<SimpleData name="Cooperative">Lanyuak</SimpleData>
		<SimpleData name="y">-0.78267</SimpleData>
		<SimpleData name="x">35.893</SimpleData>
		<SimpleData name="Crop">No crop</SimpleData>
		<SimpleData name="Depth">Top Soil</SimpleData>
		<SimpleData name="Condition">Moist</SimpleData>
		<SimpleData name="C (%)">4.24</SimpleData>
		<SimpleData name="%Sand (%)">31.3</SimpleData>
		<SimpleData name="%Silt (%)">26</SimpleData>
		<SimpleData name="BD (g/cm3)">1.05</SimpleData>
		<SimpleData name="%Clay (%)">42.7</SimpleData>
		<SimpleData name="FAO Soil Type">ANm</SimpleData>
	</SchemaData></ExtendedData>
      <Point><coordinates>35.893,-0.78267</coordinates></Point>
  </Placemark>
  <Placemark>
	<name>L61</name>
	<ExtendedData><SchemaData schemaUrl="#kenya_soc_anm">
		<SimpleData name="Sample Type">Soil Analysis</SimpleData>
		<SimpleData name="Analysis Name">Soil Bulk Density,Soil Organic Carbon (Dry Combustion),Soil Texture Analysis</SimpleData>
		<SimpleData name="Sample_Code">CR442SA0175</SimpleData>
		<SimpleData name="Client Name">Regenerative carbon Alliance</SimpleData>
		<SimpleData name="Farm Name">Regenerative carbon Alliance</SimpleData>
		<SimpleData name="Cooperative">Lanyuak</SimpleData>
		<SimpleData name="y">-0.77419</SimpleData>
		<SimpleData name="x">35.89103</SimpleData>
		<SimpleData name="Crop">No crop</SimpleData>
		<SimpleData name="Depth">Top Soil</SimpleData>
		<SimpleData name="Condition">Moist</SimpleData>
		<SimpleData name="C (%)">5.54</SimpleData>
		<SimpleData name="%Sand (%)">27.3</SimpleData>
		<SimpleData name="%Silt (%)">32</SimpleData>
		<SimpleData name="BD (g/cm3)">0.95</SimpleData>
		<SimpleData name="%Clay (%)">40.7</SimpleData>
		<SimpleData name="FAO Soil Type">ANm</SimpleData>
	</SchemaData></ExtendedData>
      <Point><coordinates>35.89103,-0.77419</coordinates></Point>
  </Placemark>
  <Placemark>
	<name>L62</name>
	<ExtendedData><SchemaData schemaUrl="#kenya_soc_anm">
		<SimpleData name="Sample Type">Soil Analysis</SimpleData>
		<SimpleData name="Analysis Name">Soil Bulk Density,Soil Organic Carbon (Dry Combustion),Soil Texture Analysis</SimpleData>
		<SimpleData name="Sample_Code">CR442SA0176</SimpleData>
		<SimpleData name="Client Name">Regenerative carbon Alliance</SimpleData>
		<SimpleData name="Farm Name">Regenerative carbon Alliance</SimpleData>
		<SimpleData name="Cooperative">Lanyuak</SimpleData>
		<SimpleData name="y">-0.76992</SimpleData>
		<SimpleData name="x">35.88869</SimpleData>
		<SimpleData name="Crop">No crop</SimpleData>
		<SimpleData name="Depth">Top Soil</SimpleData>
		<SimpleData name="Condition">Moist</SimpleData>
		<SimpleData name="C (%)">4.32</SimpleData>
		<SimpleData name="%Sand (%)">27.3</SimpleData>
		<SimpleData name="%Silt (%)">32</SimpleData>
		<SimpleData name="BD (g/cm3)">1.07</SimpleData>
		<SimpleData name="%Clay (%)">40.7</SimpleData>
		<SimpleData name="FAO Soil Type">ANm</SimpleData>
	</SchemaData></ExtendedData>
      <Point><coordinates>35.88869,-0.76992</coordinates></Point>
  </Placemark>
  <Placemark>
	<name>LNN11</name>
	<ExtendedData><SchemaData schemaUrl="#kenya_soc_anm">
		<SimpleData name="Sample Type">Soil Analysis</SimpleData>
		<SimpleData name="Analysis Name">Soil Organic Carbon (Dry Combustion) ,Soil Texture Analysis</SimpleData>
		<SimpleData name="Sample_Code">CR442SA0177</SimpleData>
		<SimpleData name="Client Name">Regenerative carbon Alliance</SimpleData>
		<SimpleData name="Farm Name">Regenerative carbon Alliance</SimpleData>
		<SimpleData name="Cooperative">Lanyuak</SimpleData>
		<SimpleData name="y">-0.71956</SimpleData>
		<SimpleData name="x">35.89797</SimpleData>
		<SimpleData name="Crop">No crop</SimpleData>
		<SimpleData name="Depth">Top Soil</SimpleData>
		<SimpleData name="Condition">Moist</SimpleData>
		<SimpleData name="C (%)">3.8</SimpleData>
		<SimpleData name="%Sand (%)">22.6</SimpleData>
		<SimpleData name="%Silt (%)">24</SimpleData>
		<SimpleData name="%Clay (%)">53.4</SimpleData>
		<SimpleData name="FAO Soil Type">ANm</SimpleData>
	</SchemaData></ExtendedData>
      <Point><coordinates>35.89797,-0.71956</coordinates></Point>
  </Placemark>
  <Placemark>
	<name>LNN13</name>
	<ExtendedData><SchemaData schemaUrl="#kenya_soc_anm">
		<SimpleData name="Sample Type">Soil Analysis</SimpleData>
		<SimpleData name="Analysis Name">Soil Organic Carbon (Dry Combustion) ,Soil Texture Analysis</SimpleData>
		<SimpleData name="Sample_Code">CR442SA0178</SimpleData>
		<SimpleData name="Client Name">Regenerative carbon Alliance</SimpleData>
		<SimpleData name="Farm Name">Regenerative carbon Alliance</SimpleData>
		<SimpleData name="Cooperative">Lanyuak</SimpleData>
		<SimpleData name="y">-0.72669</SimpleData>
		<SimpleData name="x">35.89697</SimpleData>
		<SimpleData name="Crop">No crop</SimpleData>
		<SimpleData name="Depth">Top Soil</SimpleData>
		<SimpleData name="Condition">Moist</SimpleData>
		<SimpleData name="C (%)">3.23</SimpleData>
		<SimpleData name="%Sand (%)">45.3</SimpleData>
		<SimpleData name="%Silt (%)">20</SimpleData>
		<SimpleData name="%Clay (%)">34.7</SimpleData>
		<SimpleData name="FAO Soil Type">ANm</SimpleData>
	</SchemaData></ExtendedData>
      <Point><coordinates>35.89697,-0.72669</coordinates></Point>
  </Placemark>
  <Placemark>
	<name>LNN14</name>
	<ExtendedData><SchemaData schemaUrl="#kenya_soc_anm">
		<SimpleData name="Sample Type">Soil Analysis</SimpleData>
		<SimpleData name="Analysis Name">Soil Organic Carbon (Dry Combustion) ,Soil Texture Analysis</SimpleData>
		<SimpleData name="Sample_Code">CR442SA0179</SimpleData>
		<SimpleData name="Client Name">Regenerative carbon Alliance</SimpleData>
		<SimpleData name="Farm Name">Regenerative carbon Alliance</SimpleData>
		<SimpleData name="Cooperative">Lanyuak</SimpleData>
		<SimpleData name="y">-0.71814</SimpleData>
		<SimpleData name="x">35.89819</SimpleData>
		<SimpleData name="Crop">No crop</SimpleData>
		<SimpleData name="Depth">Top Soil</SimpleData>
		<SimpleData name="Condition">Moist</SimpleData>
		<SimpleData name="C (%)">4.65</SimpleData>
		<SimpleData name="%Sand (%)">34.6</SimpleData>
		<SimpleData name="%Silt (%)">28</SimpleData>
		<SimpleData name="%Clay (%)">37.4</SimpleData>
		<SimpleData name="FAO Soil Type">ANm</SimpleData>
	</SchemaData></ExtendedData>
      <Point><coordinates>35.89819,-0.71814</coordinates></Point>
  </Placemark>
  <Placemark>
	<name>LNN15</name>
	<ExtendedData><SchemaData schemaUrl="#kenya_soc_anm">
		<SimpleData name="Sample Type">Soil Analysis</SimpleData>
		<SimpleData name="Analysis Name">Soil Organic Carbon (Dry Combustion) ,Soil Texture Analysis</SimpleData>
		<SimpleData name="Sample_Code">CR442SA0180</SimpleData>
		<SimpleData name="Client Name">Regenerative carbon Alliance</SimpleData>
		<SimpleData name="Farm Name">Regenerative carbon Alliance</SimpleData>
		<SimpleData name="Cooperative">Lanyuak</SimpleData>
		<SimpleData name="y">-0.71814</SimpleData>
		<SimpleData name="x">35.89753</SimpleData>
		<SimpleData name="Crop">No crop</SimpleData>
		<SimpleData name="Depth">Top Soil</SimpleData>
		<SimpleData name="Condition">Moist</SimpleData>
		<SimpleData name="C (%)">4.13</SimpleData>
		<SimpleData name="%Sand (%)">33.3</SimpleData>
		<SimpleData name="%Silt (%)">26</SimpleData>
		<SimpleData name="%Clay (%)">40.7</SimpleData>
		<SimpleData name="FAO Soil Type">ANm</SimpleData>
	</SchemaData></ExtendedData>
      <Point><coordinates>35.89753,-0.71814</coordinates></Point>
  </Placemark>
  <Placemark>
	<name>LNN18</name>
	<ExtendedData><SchemaData schemaUrl="#kenya_soc_anm">
		<SimpleData name="Sample Type">Soil Analysis</SimpleData>
		<SimpleData name="Analysis Name">Soil Organic Carbon (Dry Combustion) ,Soil Texture Analysis</SimpleData>
		<SimpleData name="Sample_Code">CR442SA0181</SimpleData>
		<SimpleData name="Client Name">Regenerative carbon Alliance</SimpleData>
		<SimpleData name="Farm Name">Regenerative carbon Alliance</SimpleData>
		<SimpleData name="Cooperative">Lanyuak</SimpleData>
		<SimpleData name="y">-0.73869</SimpleData>
		<SimpleData name="x">35.88917</SimpleData>
		<SimpleData name="Crop">No crop</SimpleData>
		<SimpleData name="Depth">Top Soil</SimpleData>
		<SimpleData name="Condition">Moist</SimpleData>
		<SimpleData name="C (%)">4.16</SimpleData>
		<SimpleData name="%Sand (%)">25.3</SimpleData>
		<SimpleData name="%Silt (%)">34</SimpleData>
		<SimpleData name="%Clay (%)">40.7</SimpleData>
		<SimpleData name="FAO Soil Type">ANm</SimpleData>
	</SchemaData></ExtendedData>
      <Point><coordinates>35.88917,-0.73869</coordinates></Point>
  </Placemark>
  <Placemark>
	<name>LNN19</name>
	<ExtendedData><SchemaData schemaUrl="#kenya_soc_anm">
		<SimpleData name="Sample Type">Soil Analysis</SimpleData>
		<SimpleData name="Analysis Name">Soil Organic Carbon (Dry Combustion) ,Soil Texture Analysis</SimpleData>
		<SimpleData name="Sample_Code">CR442SA0182</SimpleData>
		<SimpleData name="Client Name">Regenerative carbon Alliance</SimpleData>
		<SimpleData name="Farm Name">Regenerative carbon Alliance</SimpleData>
		<SimpleData name="Cooperative">Lanyuak</SimpleData>
		<SimpleData name="y">-0.72003</SimpleData>
		<SimpleData name="x">35.89883</SimpleData>
		<SimpleData name="Crop">No crop</SimpleData>
		<SimpleData name="Depth">Top Soil</SimpleData>
		<SimpleData name="Condition">Moist</SimpleData>
		<SimpleData name="C (%)">3.39</SimpleData>
		<SimpleData name="%Sand (%)">43.3</SimpleData>
		<SimpleData name="%Silt (%)">26</SimpleData>
		<SimpleData name="%Clay (%)">30.7</SimpleData>
		<SimpleData name="FAO Soil Type">ANm</SimpleData>
	</SchemaData></ExtendedData>
      <Point><coordinates>35.89883,-0.72003</coordinates></Point>
  </Placemark>
  <Placemark>
	<name>LNN21</name>
	<ExtendedData><SchemaData schemaUrl="#kenya_soc_anm">
		<SimpleData name="Sample Type">Soil Analysis</SimpleData>
		<SimpleData name="Analysis Name">Soil Organic Carbon (Dry Combustion) ,Soil Texture Analysis</SimpleData>
		<SimpleData name="Sample_Code">CR442SA0183</SimpleData>
		<SimpleData name="Client Name">Regenerative carbon Alliance</SimpleData>
		<SimpleData name="Farm Name">Regenerative carbon Alliance</SimpleData>
		<SimpleData name="Cooperative">Lanyuak</SimpleData>
		<SimpleData name="y">-0.69403</SimpleData>
		<SimpleData name="x">35.90069</SimpleData>
		<SimpleData name="Crop">No crop</SimpleData>
		<SimpleData name="Depth">Top Soil</SimpleData>
		<SimpleData name="Condition">Moist</SimpleData>
		<SimpleData name="C (%)">5.18</SimpleData>
		<SimpleData name="%Sand (%)">33.3</SimpleData>
		<SimpleData name="%Silt (%)">28</SimpleData>
		<SimpleData name="%Clay (%)">38.7</SimpleData>
		<SimpleData name="FAO Soil Type">ANm</SimpleData>
	</SchemaData></ExtendedData>
      <Point><coordinates>35.90069,-0.69403</coordinates></Point>
  </Placemark>
  <Placemark>
	<name>LNN22</name>
	<ExtendedData><SchemaData schemaUrl="#kenya_soc_anm">
		<SimpleData name="Sample Type">Soil Analysis</SimpleData>
		<SimpleData name="Analysis Name">Soil Organic Carbon (Dry Combustion) ,Soil Texture Analysis</SimpleData>
		<SimpleData name="Sample_Code">CR442SA0184</SimpleData>
		<SimpleData name="Client Name">Regenerative carbon Alliance</SimpleData>
		<SimpleData name="Farm Name">Regenerative carbon Alliance</SimpleData>
		<SimpleData name="Cooperative">Lanyuak</SimpleData>
		<SimpleData name="y">-0.71964</SimpleData>
		<SimpleData name="x">35.89742</SimpleData>
		<SimpleData name="Crop">No crop</SimpleData>
		<SimpleData name="Depth">Top Soil</SimpleData>
		<SimpleData name="Condition">Moist</SimpleData>
		<SimpleData name="C (%)">3.55</SimpleData>
		<SimpleData name="%Sand (%)">27.3</SimpleData>
		<SimpleData name="%Silt (%)">30</SimpleData>
		<SimpleData name="%Clay (%)">42.7</SimpleData>
		<SimpleData name="FAO Soil Type">ANm</SimpleData>
	</SchemaData></ExtendedData>
      <Point><coordinates>35.89742,-0.71964</coordinates></Point>
  </Placemark>
  <Placemark>
	<name>LNN22</name>
	<ExtendedData><SchemaData schemaUrl="#kenya_soc_anm">
		<SimpleData name="Sample Type">Soil Analysis</SimpleData>
		<SimpleData name="Analysis Name">Soil Organic Carbon (Dry Combustion) ,Soil Texture Analysis</SimpleData>
		<SimpleData name="Sample_Code">CR442SA0185</SimpleData>
		<SimpleData name="Client Name">Regenerative carbon Alliance</SimpleData>
		<SimpleData name="Farm Name">Regenerative carbon Alliance</SimpleData>
		<SimpleData name="Cooperative">Lanyuak</SimpleData>
		<SimpleData name="y">-0.7365</SimpleData>
		<SimpleData name="x">35.89278</SimpleData>
		<SimpleData name="Crop">No crop</SimpleData>
		<SimpleData name="Depth">Top Soil</SimpleData>
		<SimpleData name="Condition">Moist</SimpleData>
		<SimpleData name="C (%)">4.5</SimpleData>
		<SimpleData name="%Sand (%)">27.3</SimpleData>
		<SimpleData name="%Silt (%)">32</SimpleData>
		<SimpleData name="%Clay (%)">40.7</SimpleData>
		<SimpleData name="FAO Soil Type">ANm</SimpleData>
	</SchemaData></ExtendedData>
      <Point><coordinates>35.89278,-0.7365</coordinates></Point>
  </Placemark>
  <Placemark>
	<name>LNN23</name>
	<ExtendedData><SchemaData schemaUrl="#kenya_soc_anm">
		<SimpleData name="Sample Type">Soil Analysis</SimpleData>
		<SimpleData name="Analysis Name">Soil Organic Carbon (Dry Combustion) ,Soil Texture Analysis</SimpleData>
		<SimpleData name="Sample_Code">CR442SA0186</SimpleData>
		<SimpleData name="Client Name">Regenerative carbon Alliance</SimpleData>
		<SimpleData name="Farm Name">Regenerative carbon Alliance</SimpleData>
		<SimpleData name="Cooperative">Lanyuak</SimpleData>
		<SimpleData name="y">-0.72525</SimpleData>
		<SimpleData name="x">35.89667</SimpleData>
		<SimpleData name="Crop">No crop</SimpleData>
		<SimpleData name="Depth">Top Soil</SimpleData>
		<SimpleData name="Condition">Moist</SimpleData>
		<SimpleData name="C (%)">4.04</SimpleData>
		<SimpleData name="%Sand (%)">41.3</SimpleData>
		<SimpleData name="%Silt (%)">22</SimpleData>
		<SimpleData name="%Clay (%)">36.7</SimpleData>
		<SimpleData name="FAO Soil Type">ANm</SimpleData>
	</SchemaData></ExtendedData>
      <Point><coordinates>35.89667,-0.72525</coordinates></Point>
  </Placemark>
  <Placemark>
	<name>LNN24</name>
	<ExtendedData><SchemaData schemaUrl="#kenya_soc_anm">
		<SimpleData name="Sample Type">Soil Analysis</SimpleData>
		<SimpleData name="Analysis Name">Soil Organic Carbon (Dry Combustion) ,Soil Texture Analysis</SimpleData>
		<SimpleData name="Sample_Code">CR442SA0187</SimpleData>
		<SimpleData name="Client Name">Regenerative carbon Alliance</SimpleData>
		<SimpleData name="Farm Name">Regenerative carbon Alliance</SimpleData>
		<SimpleData name="Cooperative">Lanyuak</SimpleData>
		<SimpleData name="y">-0.71828</SimpleData>
		<SimpleData name="x">35.89794</SimpleData>
		<SimpleData name="Crop">No crop</SimpleData>
		<SimpleData name="Depth">Top Soil</SimpleData>
		<SimpleData name="Condition">Moist</SimpleData>
		<SimpleData name="C (%)">3.73</SimpleData>
		<SimpleData name="%Sand (%)">37.3</SimpleData>
		<SimpleData name="%Silt (%)">18</SimpleData>
		<SimpleData name="%Clay (%)">44.7</SimpleData>
		<SimpleData name="FAO Soil Type">ANm</SimpleData>
	</SchemaData></ExtendedData>
      <Point><coordinates>35.89794,-0.71828</coordinates></Point>
  </Placemark>
  <Placemark>
	<name>LNN25</name>
	<ExtendedData><SchemaData schemaUrl="#kenya_soc_anm">
		<SimpleData name="Sample Type">Soil Analysis</SimpleData>
		<SimpleData name="Analysis Name">Soil Organic Carbon (Dry Combustion) ,Soil Texture Analysis</SimpleData>
		<SimpleData name="Sample_Code">CR442SA0188</SimpleData>
		<SimpleData name="Client Name">Regenerative carbon Alliance</SimpleData>
		<SimpleData name="Farm Name">Regenerative carbon Alliance</SimpleData>
		<SimpleData name="Cooperative">Lanyuak</SimpleData>
		<SimpleData name="y">-0.73644</SimpleData>
		<SimpleData name="x">35.89231</SimpleData>
		<SimpleData name="Crop">No crop</SimpleData>
		<SimpleData name="Depth">Top Soil</SimpleData>
		<SimpleData name="Condition">Moist</SimpleData>
		<SimpleData name="C (%)">4.55</SimpleData>
		<SimpleData name="%Sand (%)">25.3</SimpleData>
		<SimpleData name="%Silt (%)">32</SimpleData>
		<SimpleData name="%Clay (%)">42.7</SimpleData>
		<SimpleData name="FAO Soil Type">ANm</SimpleData>
	</SchemaData></ExtendedData>
      <Point><coordinates>35.89231,-0.73644</coordinates></Point>
  </Placemark>
  <Placemark>
	<name>LNN27</name>
	<ExtendedData><SchemaData schemaUrl="#kenya_soc_anm">
		<SimpleData name="Sample Type">Soil Analysis</SimpleData>
		<SimpleData name="Analysis Name">Soil Organic Carbon (Dry Combustion) ,Soil Texture Analysis</SimpleData>
		<SimpleData name="Sample_Code">CR442SA0189</SimpleData>
		<SimpleData name="Client Name">Regenerative carbon Alliance</SimpleData>
		<SimpleData name="Farm Name">Regenerative carbon Alliance</SimpleData>
		<SimpleData name="Cooperative">Lanyuak</SimpleData>
		<SimpleData name="y">-0.72028</SimpleData>
		<SimpleData name="x">35.89939</SimpleData>
		<SimpleData name="Crop">No crop</SimpleData>
		<SimpleData name="Depth">Top Soil</SimpleData>
		<SimpleData name="Condition">Moist</SimpleData>
		<SimpleData name="C (%)">1.06</SimpleData>
		<SimpleData name="%Sand (%)">53.3</SimpleData>
		<SimpleData name="%Silt (%)">18</SimpleData>
		<SimpleData name="%Clay (%)">28.7</SimpleData>
		<SimpleData name="FAO Soil Type">ANm</SimpleData>
	</SchemaData></ExtendedData>
      <Point><coordinates>35.89939,-0.72028</coordinates></Point>
  </Placemark>
  <Placemark>
	<name>LNN3</name>
	<ExtendedData><SchemaData schemaUrl="#kenya_soc_anm">
		<SimpleData name="Sample Type">Soil Analysis</SimpleData>
		<SimpleData name="Analysis Name">Soil Organic Carbon (Dry Combustion) ,Soil Texture Analysis</SimpleData>
		<SimpleData name="Sample_Code">CR442SA0190</SimpleData>
		<SimpleData name="Client Name">Regenerative carbon Alliance</SimpleData>
		<SimpleData name="Farm Name">Regenerative carbon Alliance</SimpleData>
		<SimpleData name="Cooperative">Lanyuak</SimpleData>
		<SimpleData name="y">-0.71775</SimpleData>
		<SimpleData name="x">35.89814</SimpleData>
		<SimpleData name="Crop">No crop</SimpleData>
		<SimpleData name="Depth">Top Soil</SimpleData>
		<SimpleData name="Condition">Moist</SimpleData>
		<SimpleData name="C (%)">4.61</SimpleData>
		<SimpleData name="%Sand (%)">45.3</SimpleData>
		<SimpleData name="%Silt (%)">20</SimpleData>
		<SimpleData name="%Clay (%)">34.7</SimpleData>
		<SimpleData name="FAO Soil Type">ANm</SimpleData>
	</SchemaData></ExtendedData>
      <Point><coordinates>35.89814,-0.71775</coordinates></Point>
  </Placemark>
  <Placemark>
	<name>LNN9</name>
	<ExtendedData><SchemaData schemaUrl="#kenya_soc_anm">
		<SimpleData name="Sample Type">Soil Analysis</SimpleData>
		<SimpleData name="Analysis Name">Soil Organic Carbon (Dry Combustion) ,Soil Texture Analysis</SimpleData>
		<SimpleData name="Sample_Code">CR442SA0191</SimpleData>
		<SimpleData name="Client Name">Regenerative carbon Alliance</SimpleData>
		<SimpleData name="Farm Name">Regenerative carbon Alliance</SimpleData>
		<SimpleData name="Cooperative">Lanyuak</SimpleData>
		<SimpleData name="y">-0.739</SimpleData>
		<SimpleData name="x">35.88961</SimpleData>
		<SimpleData name="Crop">No crop</SimpleData>
		<SimpleData name="Depth">Top Soil</SimpleData>
		<SimpleData name="Condition">Moist</SimpleData>
		<SimpleData name="C (%)">4.59</SimpleData>
		<SimpleData name="%Sand (%)">39.3</SimpleData>
		<SimpleData name="%Silt (%)">22</SimpleData>
		<SimpleData name="%Clay (%)">38.7</SimpleData>
		<SimpleData name="FAO Soil Type">ANm</SimpleData>
	</SchemaData></ExtendedData>
      <Point><coordinates>35.88961,-0.739</coordinates></Point>
  </Placemark>
  <Placemark>
	<name>LNNu31</name>
	<ExtendedData><SchemaData schemaUrl="#kenya_soc_anm">
		<SimpleData name="Sample Type">Soil Analysis</SimpleData>
		<SimpleData name="Analysis Name">Soil Organic Carbon (Dry Combustion) ,Soil Texture Analysis</SimpleData>
		<SimpleData name="Sample_Code">CR442SA0192</SimpleData>
		<SimpleData name="Client Name">Regenerative carbon Alliance</SimpleData>
		<SimpleData name="Farm Name">Regenerative carbon Alliance</SimpleData>
		<SimpleData name="Cooperative">Lanyuak</SimpleData>
		<SimpleData name="y">-0.75025</SimpleData>
		<SimpleData name="x">35.89144</SimpleData>
		<SimpleData name="Crop">No crop</SimpleData>
		<SimpleData name="Depth">Top Soil</SimpleData>
		<SimpleData name="Condition">Moist</SimpleData>
		<SimpleData name="C (%)">3.47</SimpleData>
		<SimpleData name="%Sand (%)">27.3</SimpleData>
		<SimpleData name="%Silt (%)">30</SimpleData>
		<SimpleData name="%Clay (%)">42.7</SimpleData>
		<SimpleData name="FAO Soil Type">ANm</SimpleData>
	</SchemaData></ExtendedData>
      <Point><coordinates>35.89144,-0.75025</coordinates></Point>
  </Placemark>
</Folder>
</Document></kml>
